,Club Name,Address,Latitude,Longitude,Category,Description
0,Pure Nightclub,"146 S Murphy Ave, Sunnyvale",37.377,-122.03,,
1,HUE,"447 Broadway, San Francisco",37.798,-122.405,ASSAULT,"BATTERY, FORMER SPOUSE OR DATING RELATIONSHIP"
2,HUE,"447 Broadway, San Francisco",37.798,-122.405,WARRANTS,ENROUTE TO ADULT AUTHORITY
3,HUE,"447 Broadway, San Francisco",37.798,-122.405,LARCENY/THEFT,PETTY THEFT FROM A BUILDING
4,HUE,"447 Broadway, San Francisco",37.798,-122.405,OTHER OFFENSES,RESISTING ARREST
5,HUE,"447 Broadway, San Francisco",37.798,-122.405,SUSPICIOUS OCC,INVESTIGATIVE DETENTION
6,HUE,"447 Broadway, San Francisco",37.798,-122.405,NON-CRIMINAL,LOST PROPERTY
7,HUE,"447 Broadway, San Francisco",37.798,-122.405,DRUG/NARCOTIC,SALE OF COCAINE
8,HUE,"447 Broadway, San Francisco",37.798,-122.405,DRUG/NARCOTIC,SALE OF MARIJUANA
9,HUE,"447 Broadway, San Francisco",37.798,-122.405,DRUG/NARCOTIC,POSSESSION OF COCAINE FOR SALES
10,HUE,"447 Broadway, San Francisco",37.798,-122.405,DRUG/NARCOTIC,POSSESSION OF METH-AMPHETAMINE FOR SALE
11,HUE,"447 Broadway, San Francisco",37.798,-122.405,LARCENY/THEFT,PETTY THEFT FROM A BUILDING
12,HUE,"447 Broadway, San Francisco",37.798,-122.405,MISSING PERSON,MISSING ADULT
13,HUE,"447 Broadway, San Francisco",37.798,-122.405,SUSPICIOUS OCC,INVESTIGATIVE DETENTION
14,HUE,"447 Broadway, San Francisco",37.798,-122.405,SUSPICIOUS OCC,INVESTIGATIVE DETENTION
15,HUE,"447 Broadway, San Francisco",37.798,-122.405,LARCENY/THEFT,GRAND THEFT FROM PERSON
16,HUE,"447 Broadway, San Francisco",37.798,-122.405,OTHER OFFENSES,VIOLATION OF MUNICIPAL POLICE CODE
17,HUE,"447 Broadway, San Francisco",37.798,-122.405,OTHER OFFENSES,TRAFFIC VIOLATION
18,HUE,"447 Broadway, San Francisco",37.798,-122.405,SUSPICIOUS OCC,INVESTIGATIVE DETENTION
19,HUE,"447 Broadway, San Francisco",37.798,-122.405,LARCENY/THEFT,GRAND THEFT OF PROPERTY
20,HUE,"447 Broadway, San Francisco",37.798,-122.405,OTHER OFFENSES,RESISTING ARREST
21,HUE,"447 Broadway, San Francisco",37.798,-122.405,OTHER OFFENSES,MISCELLANEOUS INVESTIGATION
22,HUE,"447 Broadway, San Francisco",37.798,-122.405,NON-CRIMINAL,"AIDED CASE, MENTAL DISTURBED"
23,HUE,"447 Broadway, San Francisco",37.798,-122.405,OTHER OFFENSES,TRAFFIC VIOLATION
24,HUE,"447 Broadway, San Francisco",37.798,-122.405,NON-CRIMINAL,LOST PROPERTY
25,HUE,"447 Broadway, San Francisco",37.798,-122.405,ASSAULT,"BATTERY, FORMER SPOUSE OR DATING RELATIONSHIP"
26,HUE,"447 Broadway, San Francisco",37.798,-122.405,SECONDARY CODES,DOMESTIC VIOLENCE
27,HUE,"447 Broadway, San Francisco",37.798,-122.405,OTHER OFFENSES,"DRIVERS LICENSE, SUSPENDED OR REVOKED"
28,HUE,"447 Broadway, San Francisco",37.798,-122.405,OTHER OFFENSES,"DRIVERS LICENSE, SUSPENDED OR REVOKED"
29,HUE,"447 Broadway, San Francisco",37.798,-122.405,OTHER OFFENSES,RECKLESS DRIVING
30,HUE,"447 Broadway, San Francisco",37.798,-122.405,OTHER OFFENSES,SPEEDING
31,HUE,"447 Broadway, San Francisco",37.798,-122.405,DRUG/NARCOTIC,POSSESSION OF MARIJUANA
32,HUE,"447 Broadway, San Francisco",37.798,-122.405,OTHER OFFENSES,RESISTING ARREST
33,HUE,"447 Broadway, San Francisco",37.798,-122.405,OTHER OFFENSES,TRAFFIC VIOLATION ARREST
34,HUE,"447 Broadway, San Francisco",37.798,-122.405,OTHER OFFENSES,FALSE PERSONATION TO RECEIVE MONEY OR PROPERTY
35,HUE,"447 Broadway, San Francisco",37.798,-122.405,LARCENY/THEFT,GRAND THEFT FROM PERSON
36,HUE,"447 Broadway, San Francisco",37.798,-122.405,FRAUD,"CREDIT CARD, THEFT BY USE OF"
37,HUE,"447 Broadway, San Francisco",37.798,-122.405,ROBBERY,"ROBBERY, BODILY FORCE"
38,HUE,"447 Broadway, San Francisco",37.798,-122.405,MISSING PERSON,MISSING ADULT
39,HUE,"447 Broadway, San Francisco",37.798,-122.405,SUSPICIOUS OCC,SUSPICIOUS OCCURRENCE
40,HUE,"447 Broadway, San Francisco",37.798,-122.405,DISORDERLY CONDUCT,DISTURBING THE PEACE
41,HUE,"447 Broadway, San Francisco",37.798,-122.405,NON-CRIMINAL,FOUND PROPERTY
42,HUE,"447 Broadway, San Francisco",37.798,-122.405,DRUNKENNESS,UNDER INFLUENCE OF ALCOHOL IN A PUBLIC PLACE
43,HUE,"447 Broadway, San Francisco",37.798,-122.405,"SEX OFFENSES, FORCIBLE","FORCIBLE RAPE, BODILY FORCE"
44,HUE,"447 Broadway, San Francisco",37.798,-122.405,NON-CRIMINAL,LOST PROPERTY
45,HUE,"447 Broadway, San Francisco",37.798,-122.405,OTHER OFFENSES,"DRIVERS LICENSE, SUSPENDED OR REVOKED"
46,HUE,"447 Broadway, San Francisco",37.798,-122.405,NON-CRIMINAL,LOST PROPERTY
47,HUE,"447 Broadway, San Francisco",37.798,-122.405,LARCENY/THEFT,PETTY THEFT OF PROPERTY
48,HUE,"447 Broadway, San Francisco",37.798,-122.405,NON-CRIMINAL,LOST PROPERTY
49,HUE,"447 Broadway, San Francisco",37.798,-122.405,NON-CRIMINAL,LOST PROPERTY
50,HUE,"447 Broadway, San Francisco",37.798,-122.405,LARCENY/THEFT,PETTY THEFT OF PROPERTY
51,HUE,"447 Broadway, San Francisco",37.798,-122.405,LARCENY/THEFT,PETTY THEFT OF PROPERTY
52,HUE,"447 Broadway, San Francisco",37.798,-122.405,LARCENY/THEFT,PETTY THEFT OF PROPERTY
53,HUE,"447 Broadway, San Francisco",37.798,-122.405,NON-CRIMINAL,LOST PROPERTY
54,HUE,"447 Broadway, San Francisco",37.798,-122.405,NON-CRIMINAL,LOST PROPERTY
55,HUE,"447 Broadway, San Francisco",37.798,-122.405,NON-CRIMINAL,LOST PROPERTY
56,HUE,"447 Broadway, San Francisco",37.798,-122.405,LARCENY/THEFT,GRAND THEFT OF PROPERTY
57,HUE,"447 Broadway, San Francisco",37.798,-122.405,ASSAULT,BATTERY OF A POLICE OFFICER
58,HUE,"447 Broadway, San Francisco",37.798,-122.405,ASSAULT,BATTERY
59,HUE,"447 Broadway, San Francisco",37.798,-122.405,LARCENY/THEFT,PETTY THEFT OF PROPERTY
60,HUE,"447 Broadway, San Francisco",37.798,-122.405,ASSAULT,BATTERY
61,HUE,"447 Broadway, San Francisco",37.798,-122.405,STOLEN PROPERTY,"STOLEN PROPERTY, POSSESSION WITH KNOWLEDGE, RECEIVING"
62,HUE,"447 Broadway, San Francisco",37.798,-122.405,LARCENY/THEFT,"LOST PROPERTY, PETTY THEFT"
63,HUE,"447 Broadway, San Francisco",37.798,-122.405,OTHER OFFENSES,RESISTING ARREST
64,HUE,"447 Broadway, San Francisco",37.798,-122.405,ASSAULT,BATTERY OF A POLICE OFFICER
65,HUE,"447 Broadway, San Francisco",37.798,-122.405,OTHER OFFENSES,RESISTING ARREST
66,HUE,"447 Broadway, San Francisco",37.798,-122.405,NON-CRIMINAL,LOST PROPERTY
67,Origin,"1538 Fillmore St, San Francisco",37.784,-122.433,ROBBERY,"ROBBERY OF A COMMERCIAL ESTABLISHMENT, STRONGARM"
68,Origin,"1538 Fillmore St, San Francisco",37.784,-122.433,ASSAULT,BATTERY
69,Origin,"1538 Fillmore St, San Francisco",37.784,-122.433,ROBBERY,"ROBBERY, BODILY FORCE"
70,Origin,"1538 Fillmore St, San Francisco",37.784,-122.433,ASSAULT,BATTERY
71,Origin,"1538 Fillmore St, San Francisco",37.784,-122.433,LARCENY/THEFT,PETTY THEFT FROM LOCKED AUTO
72,Origin,"1538 Fillmore St, San Francisco",37.784,-122.433,ASSAULT,AGGRAVATED ASSAULT WITH BODILY FORCE
73,Origin,"1538 Fillmore St, San Francisco",37.784,-122.433,LARCENY/THEFT,GRAND THEFT PICKPOCKET
74,Origin,"1538 Fillmore St, San Francisco",37.784,-122.433,WARRANTS,ENROUTE TO PAROLE OFFICER
75,Origin,"1538 Fillmore St, San Francisco",37.784,-122.433,VANDALISM,"MALICIOUS MISCHIEF, VANDALISM OF VEHICLES"
76,Origin,"1538 Fillmore St, San Francisco",37.784,-122.433,ASSAULT,AGGRAVATED ASSAULT WITH A DEADLY WEAPON
77,Origin,"1538 Fillmore St, San Francisco",37.784,-122.433,LARCENY/THEFT,GRAND THEFT FROM LOCKED AUTO
78,Origin,"1538 Fillmore St, San Francisco",37.784,-122.433,VEHICLE THEFT,STOLEN AUTOMOBILE
79,Origin,"1538 Fillmore St, San Francisco",37.784,-122.433,VANDALISM,"MALICIOUS MISCHIEF, VANDALISM OF VEHICLES"
80,Origin,"1538 Fillmore St, San Francisco",37.784,-122.433,NON-CRIMINAL,FOUND PROPERTY
81,Origin,"1538 Fillmore St, San Francisco",37.784,-122.433,STOLEN PROPERTY,"STOLEN PROPERTY, POSSESSION WITH KNOWLEDGE, RECEIVING"
82,Origin,"1538 Fillmore St, San Francisco",37.784,-122.433,OTHER OFFENSES,POSSESSION OF BURGLARY TOOLS
83,Origin,"1538 Fillmore St, San Francisco",37.784,-122.433,ASSAULT,BATTERY
84,Origin,"1538 Fillmore St, San Francisco",37.784,-122.433,OTHER OFFENSES,"DRIVERS LICENSE, SUSPENDED OR REVOKED"
85,Origin,"1538 Fillmore St, San Francisco",37.784,-122.433,FRAUD,"CREDIT CARD, THEFT BY USE OF"
86,Origin,"1538 Fillmore St, San Francisco",37.784,-122.433,LARCENY/THEFT,PETTY THEFT FROM LOCKED AUTO
87,Origin,"1538 Fillmore St, San Francisco",37.784,-122.433,VANDALISM,"MALICIOUS MISCHIEF, BREAKING WINDOWS"
88,Origin,"1538 Fillmore St, San Francisco",37.784,-122.433,ROBBERY,"ROBBERY ON THE STREET, STRONGARM"
89,Origin,"1538 Fillmore St, San Francisco",37.784,-122.433,STOLEN PROPERTY,"STOLEN PROPERTY, POSSESSION WITH KNOWLEDGE, RECEIVING"
90,Origin,"1538 Fillmore St, San Francisco",37.784,-122.433,LARCENY/THEFT,GRAND THEFT FROM PERSON
91,Origin,"1538 Fillmore St, San Francisco",37.784,-122.433,VANDALISM,"MALICIOUS MISCHIEF, VANDALISM OF VEHICLES"
92,Origin,"1538 Fillmore St, San Francisco",37.784,-122.433,ROBBERY,"ROBBERY, BODILY FORCE"
93,Origin,"1538 Fillmore St, San Francisco",37.784,-122.433,VEHICLE THEFT,STOLEN AUTOMOBILE
94,Origin,"1538 Fillmore St, San Francisco",37.784,-122.433,LARCENY/THEFT,PETTY THEFT FROM LOCKED AUTO
95,Origin,"1538 Fillmore St, San Francisco",37.784,-122.433,LARCENY/THEFT,GRAND THEFT PICKPOCKET
96,Origin,"1538 Fillmore St, San Francisco",37.784,-122.433,FRAUD,"CREDIT CARD, THEFT BY USE OF"
97,Origin,"1538 Fillmore St, San Francisco",37.784,-122.433,VANDALISM,"MALICIOUS MISCHIEF, VANDALISM"
98,Origin,"1538 Fillmore St, San Francisco",37.784,-122.433,LARCENY/THEFT,GRAND THEFT FROM LOCKED AUTO
99,Origin,"1538 Fillmore St, San Francisco",37.784,-122.433,NON-CRIMINAL,AIDED CASE
100,Origin,"1538 Fillmore St, San Francisco",37.784,-122.433,NON-CRIMINAL,FOUND PROPERTY
101,Origin,"1538 Fillmore St, San Francisco",37.784,-122.433,OTHER OFFENSES,"DRIVERS LICENSE, SUSPENDED OR REVOKED"
102,Origin,"1538 Fillmore St, San Francisco",37.784,-122.433,FORGERY/COUNTERFEITING,"CHECKS, POSSESSION WITH INTENT TO PASS"
103,Origin,"1538 Fillmore St, San Francisco",37.784,-122.433,BURGLARY,"BURGLARY, UNLAWFUL ENTRY"
104,Origin,"1538 Fillmore St, San Francisco",37.784,-122.433,OTHER OFFENSES,FALSE PERSONATION TO RECEIVE MONEY OR PROPERTY
105,Origin,"1538 Fillmore St, San Francisco",37.784,-122.433,STOLEN PROPERTY,"STOLEN PROPERTY, POSSESSION WITH KNOWLEDGE, RECEIVING"
106,Origin,"1538 Fillmore St, San Francisco",37.784,-122.433,OTHER OFFENSES,"FRAUDULENT GAME OR TRICK, OBTAINING MONEY OR PROPERTY"
107,Origin,"1538 Fillmore St, San Francisco",37.784,-122.433,VANDALISM,"MALICIOUS MISCHIEF, VANDALISM"
108,Origin,"1538 Fillmore St, San Francisco",37.784,-122.433,NON-CRIMINAL,LOST PROPERTY
109,Origin,"1538 Fillmore St, San Francisco",37.784,-122.433,LARCENY/THEFT,GRAND THEFT FROM PERSON
110,Origin,"1538 Fillmore St, San Francisco",37.784,-122.433,ASSAULT,ASSAULT ON A POLICE OFFICER WITH A DEADLY WEAPON
111,Origin,"1538 Fillmore St, San Francisco",37.784,-122.433,ASSAULT,BATTERY OF A POLICE OFFICER
112,Origin,"1538 Fillmore St, San Francisco",37.784,-122.433,BURGLARY,"BURGLARY, UNLAWFUL ENTRY"
113,Origin,"1538 Fillmore St, San Francisco",37.784,-122.433,STOLEN PROPERTY,"STOLEN PROPERTY, POSSESSION WITH KNOWLEDGE, RECEIVING"
114,Origin,"1538 Fillmore St, San Francisco",37.784,-122.433,DRUG/NARCOTIC,POSSESSION OF NARCOTICS PARAPHERNALIA
115,Origin,"1538 Fillmore St, San Francisco",37.784,-122.433,OTHER OFFENSES,PROBATION VIOLATION
116,Origin,"1538 Fillmore St, San Francisco",37.784,-122.433,OTHER OFFENSES,POSSESSION OF BURGLARY TOOLS
117,Origin,"1538 Fillmore St, San Francisco",37.784,-122.433,OTHER OFFENSES,RESISTING ARREST
118,Origin,"1538 Fillmore St, San Francisco",37.784,-122.433,ASSAULT,THREAT OR FORCE TO RESIST EXECUTIVE OFFICER
119,Origin,"1538 Fillmore St, San Francisco",37.784,-122.433,LARCENY/THEFT,GRAND THEFT FROM LOCKED AUTO
120,Origin,"1538 Fillmore St, San Francisco",37.784,-122.433,ASSAULT,AGGRAVATED ASSAULT WITH A KNIFE
121,Origin,"1538 Fillmore St, San Francisco",37.784,-122.433,ASSAULT,INFLICT INJURY ON COHABITEE
122,Origin,"1538 Fillmore St, San Francisco",37.784,-122.433,FORGERY/COUNTERFEITING,"CHECKS, MAKE OR PASS FICTITIOUS"
123,Origin,"1538 Fillmore St, San Francisco",37.784,-122.433,OTHER OFFENSES,"FRAUDULENT GAME OR TRICK, OBTAINING MONEY OR PROPERTY"
124,Origin,"1538 Fillmore St, San Francisco",37.784,-122.433,LARCENY/THEFT,PETTY THEFT SHOPLIFTING
125,Origin,"1538 Fillmore St, San Francisco",37.784,-122.433,ASSAULT,BATTERY
126,Origin,"1538 Fillmore St, San Francisco",37.784,-122.433,VANDALISM,"MALICIOUS MISCHIEF, VANDALISM OF VEHICLES"
127,Origin,"1538 Fillmore St, San Francisco",37.784,-122.433,ROBBERY,"ROBBERY, BODILY FORCE"
128,Origin,"1538 Fillmore St, San Francisco",37.784,-122.433,ASSAULT,AGGRAVATED ASSAULT WITH A KNIFE
129,Origin,"1538 Fillmore St, San Francisco",37.784,-122.433,ASSAULT,ELDER ADULT OR DEPENDENT ABUSE (NOT EMBEZZLEMENT OR THEFT)
130,Origin,"1538 Fillmore St, San Francisco",37.784,-122.433,ASSAULT,THREATS AGAINST LIFE
131,Origin,"1538 Fillmore St, San Francisco",37.784,-122.433,WARRANTS,WARRANT ARREST
132,Origin,"1538 Fillmore St, San Francisco",37.784,-122.433,NON-CRIMINAL,LOST PROPERTY
133,Origin,"1538 Fillmore St, San Francisco",37.784,-122.433,BAD CHECKS,"CHECKS, NON-SUFFICIENT FUNDS (MISDEMEANOR)"
134,Origin,"1538 Fillmore St, San Francisco",37.784,-122.433,LARCENY/THEFT,PETTY THEFT FROM LOCKED AUTO
135,Origin,"1538 Fillmore St, San Francisco",37.784,-122.433,ASSAULT,BATTERY
136,Origin,"1538 Fillmore St, San Francisco",37.784,-122.433,OTHER OFFENSES,RESISTING ARREST
137,Origin,"1538 Fillmore St, San Francisco",37.784,-122.433,OTHER OFFENSES,TRAFFIC VIOLATION ARREST
138,Origin,"1538 Fillmore St, San Francisco",37.784,-122.433,NON-CRIMINAL,AIDED CASE
139,Origin,"1538 Fillmore St, San Francisco",37.784,-122.433,LARCENY/THEFT,GRAND THEFT FROM PERSON
140,Origin,"1538 Fillmore St, San Francisco",37.784,-122.433,LARCENY/THEFT,GRAND THEFT FROM PERSON
141,Origin,"1538 Fillmore St, San Francisco",37.784,-122.433,LARCENY/THEFT,GRAND THEFT PICKPOCKET
142,Origin,"1538 Fillmore St, San Francisco",37.784,-122.433,FRAUD,"CREDIT CARD, THEFT BY USE OF"
143,Origin,"1538 Fillmore St, San Francisco",37.784,-122.433,SUSPICIOUS OCC,INVESTIGATIVE DETENTION
144,Origin,"1538 Fillmore St, San Francisco",37.784,-122.433,LARCENY/THEFT,GRAND THEFT FROM LOCKED AUTO
145,Origin,"1538 Fillmore St, San Francisco",37.784,-122.433,BURGLARY,"BURGLARY,STORE UNDER CONSTRUCTION, FORCIBLE ENTRY"
146,Origin,"1538 Fillmore St, San Francisco",37.784,-122.433,MISSING PERSON,MISSING ADULT
147,Origin,"1538 Fillmore St, San Francisco",37.784,-122.433,MISSING PERSON,FOUND PERSON
148,Origin,"1538 Fillmore St, San Francisco",37.784,-122.433,VEHICLE THEFT,STOLEN AUTOMOBILE
149,Origin,"1538 Fillmore St, San Francisco",37.784,-122.433,FORGERY/COUNTERFEITING,"CHECKS, FORGERY (FELONY)"
150,Origin,"1538 Fillmore St, San Francisco",37.784,-122.433,FORGERY/COUNTERFEITING,"CHECKS, FORGERY (FELONY)"
151,Origin,"1538 Fillmore St, San Francisco",37.784,-122.433,MISSING PERSON,MISSING ADULT
152,Origin,"1538 Fillmore St, San Francisco",37.784,-122.433,MISSING PERSON,FOUND PERSON
153,Origin,"1538 Fillmore St, San Francisco",37.784,-122.433,LARCENY/THEFT,GRAND THEFT PICKPOCKET
154,Origin,"1538 Fillmore St, San Francisco",37.784,-122.433,LARCENY/THEFT,GRAND THEFT PICKPOCKET
155,Origin,"1538 Fillmore St, San Francisco",37.784,-122.433,VANDALISM,"MALICIOUS MISCHIEF, BREAKING WINDOWS"
156,Origin,"1538 Fillmore St, San Francisco",37.784,-122.433,WEAPON LAWS,POSSESSION OF AIR GUN
157,Origin,"1538 Fillmore St, San Francisco",37.784,-122.433,LARCENY/THEFT,GRAND THEFT FROM LOCKED AUTO
158,Origin,"1538 Fillmore St, San Francisco",37.784,-122.433,LARCENY/THEFT,GRAND THEFT FROM LOCKED AUTO
159,Origin,"1538 Fillmore St, San Francisco",37.784,-122.433,NON-CRIMINAL,LOST PROPERTY
160,Origin,"1538 Fillmore St, San Francisco",37.784,-122.433,LARCENY/THEFT,GRAND THEFT FROM LOCKED AUTO
161,Origin,"1538 Fillmore St, San Francisco",37.784,-122.433,LARCENY/THEFT,GRAND THEFT FROM LOCKED AUTO
162,Origin,"1538 Fillmore St, San Francisco",37.784,-122.433,LARCENY/THEFT,GRAND THEFT FROM LOCKED AUTO
163,Origin,"1538 Fillmore St, San Francisco",37.784,-122.433,LARCENY/THEFT,GRAND THEFT FROM LOCKED AUTO
164,Origin,"1538 Fillmore St, San Francisco",37.784,-122.433,LARCENY/THEFT,GRAND THEFT FROM LOCKED AUTO
165,Origin,"1538 Fillmore St, San Francisco",37.784,-122.433,LARCENY/THEFT,GRAND THEFT FROM LOCKED AUTO
166,Origin,"1538 Fillmore St, San Francisco",37.784,-122.433,NON-CRIMINAL,LOST PROPERTY
167,Origin,"1538 Fillmore St, San Francisco",37.784,-122.433,LARCENY/THEFT,GRAND THEFT FROM LOCKED AUTO
168,Origin,"1538 Fillmore St, San Francisco",37.784,-122.433,LARCENY/THEFT,GRAND THEFT OF PROPERTY
169,Origin,"1538 Fillmore St, San Francisco",37.784,-122.433,LARCENY/THEFT,PETTY THEFT OF PROPERTY
170,Origin,"1538 Fillmore St, San Francisco",37.784,-122.433,LARCENY/THEFT,PETTY THEFT OF PROPERTY
171,Origin,"1538 Fillmore St, San Francisco",37.784,-122.433,LARCENY/THEFT,GRAND THEFT FROM LOCKED AUTO
172,Origin,"1538 Fillmore St, San Francisco",37.784,-122.433,NON-CRIMINAL,LOST PROPERTY
173,Origin,"1538 Fillmore St, San Francisco",37.784,-122.433,NON-CRIMINAL,LOST PROPERTY
174,Origin,"1538 Fillmore St, San Francisco",37.784,-122.433,LARCENY/THEFT,GRAND THEFT FROM LOCKED AUTO
175,Origin,"1538 Fillmore St, San Francisco",37.784,-122.433,NON-CRIMINAL,LOST PROPERTY
176,Origin,"1538 Fillmore St, San Francisco",37.784,-122.433,LARCENY/THEFT,GRAND THEFT FROM LOCKED AUTO
177,Origin,"1538 Fillmore St, San Francisco",37.784,-122.433,LARCENY/THEFT,GRAND THEFT FROM LOCKED AUTO
178,Origin,"1538 Fillmore St, San Francisco",37.784,-122.433,LARCENY/THEFT,GRAND THEFT FROM UNLOCKED AUTO
179,Origin,"1538 Fillmore St, San Francisco",37.784,-122.433,LARCENY/THEFT,GRAND THEFT FROM LOCKED AUTO
180,Origin,"1538 Fillmore St, San Francisco",37.784,-122.433,LARCENY/THEFT,GRAND THEFT FROM PERSON
181,Origin,"1538 Fillmore St, San Francisco",37.784,-122.433,LARCENY/THEFT,GRAND THEFT FROM LOCKED AUTO
182,Origin,"1538 Fillmore St, San Francisco",37.784,-122.433,VANDALISM,"MALICIOUS MISCHIEF, VANDALISM"
183,Origin,"1538 Fillmore St, San Francisco",37.784,-122.433,LARCENY/THEFT,PETTY THEFT OF PROPERTY
184,Origin,"1538 Fillmore St, San Francisco",37.784,-122.433,LARCENY/THEFT,GRAND THEFT FROM LOCKED AUTO
185,Origin,"1538 Fillmore St, San Francisco",37.784,-122.433,NON-CRIMINAL,LOST PROPERTY
186,Origin,"1538 Fillmore St, San Francisco",37.784,-122.433,LARCENY/THEFT,GRAND THEFT FROM LOCKED AUTO
187,Origin,"1538 Fillmore St, San Francisco",37.784,-122.433,LARCENY/THEFT,GRAND THEFT OF PROPERTY
188,Origin,"1538 Fillmore St, San Francisco",37.784,-122.433,OTHER OFFENSES,PROBATION VIOLATION
189,Origin,"1538 Fillmore St, San Francisco",37.784,-122.433,WARRANTS,WARRANT ARREST
190,Origin,"1538 Fillmore St, San Francisco",37.784,-122.433,WARRANTS,WARRANT ARREST
191,Origin,"1538 Fillmore St, San Francisco",37.784,-122.433,LARCENY/THEFT,GRAND THEFT FROM LOCKED AUTO
192,Origin,"1538 Fillmore St, San Francisco",37.784,-122.433,LARCENY/THEFT,GRAND THEFT FROM LOCKED AUTO
193,Origin,"1538 Fillmore St, San Francisco",37.784,-122.433,LARCENY/THEFT,GRAND THEFT FROM LOCKED AUTO
194,Origin,"1538 Fillmore St, San Francisco",37.784,-122.433,LARCENY/THEFT,GRAND THEFT FROM LOCKED AUTO
195,Origin,"1538 Fillmore St, San Francisco",37.784,-122.433,LARCENY/THEFT,GRAND THEFT FROM LOCKED AUTO
196,Origin,"1538 Fillmore St, San Francisco",37.784,-122.433,LARCENY/THEFT,PETTY THEFT OF PROPERTY
197,Origin,"1538 Fillmore St, San Francisco",37.784,-122.433,LARCENY/THEFT,GRAND THEFT FROM LOCKED AUTO
198,Origin,"1538 Fillmore St, San Francisco",37.784,-122.433,LARCENY/THEFT,GRAND THEFT FROM LOCKED AUTO
199,Origin,"1538 Fillmore St, San Francisco",37.784,-122.433,NON-CRIMINAL,LOST PROPERTY
200,Origin,"1538 Fillmore St, San Francisco",37.784,-122.433,NON-CRIMINAL,LOST PROPERTY
201,Origin,"1538 Fillmore St, San Francisco",37.784,-122.433,LARCENY/THEFT,GRAND THEFT FROM LOCKED AUTO
202,Origin,"1538 Fillmore St, San Francisco",37.784,-122.433,LARCENY/THEFT,GRAND THEFT FROM LOCKED AUTO
203,Origin,"1538 Fillmore St, San Francisco",37.784,-122.433,OTHER OFFENSES,LOST/STOLEN LICENSE PLATE
204,Origin,"1538 Fillmore St, San Francisco",37.784,-122.433,SUSPICIOUS OCC,SUSPICIOUS ACT TOWARDS CHILD
205,Origin,"1538 Fillmore St, San Francisco",37.784,-122.433,ROBBERY,"ROBBERY, BODILY FORCE"
206,Origin,"1538 Fillmore St, San Francisco",37.784,-122.433,LARCENY/THEFT,PETTY THEFT FROM LOCKED AUTO
207,Origin,"1538 Fillmore St, San Francisco",37.784,-122.433,STOLEN PROPERTY,"STOLEN PROPERTY, POSSESSION WITH KNOWLEDGE, RECEIVING"
208,Origin,"1538 Fillmore St, San Francisco",37.784,-122.433,LARCENY/THEFT,THEFT FROM MERCHANT OR LIBRARY
209,Origin,"1538 Fillmore St, San Francisco",37.784,-122.433,SUSPICIOUS OCC,INVESTIGATIVE DETENTION
210,Origin,"1538 Fillmore St, San Francisco",37.784,-122.433,LARCENY/THEFT,GRAND THEFT PICKPOCKET
211,Origin,"1538 Fillmore St, San Francisco",37.784,-122.433,FRAUD,"CREDIT CARD, THEFT BY USE OF"
212,Origin,"1538 Fillmore St, San Francisco",37.784,-122.433,LARCENY/THEFT,PETTY THEFT FROM A BUILDING
213,Origin,"1538 Fillmore St, San Francisco",37.784,-122.433,LARCENY/THEFT,GRAND THEFT PURSESNATCH
214,Origin,"1538 Fillmore St, San Francisco",37.784,-122.433,VANDALISM,"MALICIOUS MISCHIEF, VANDALISM"
215,Origin,"1538 Fillmore St, San Francisco",37.784,-122.433,LARCENY/THEFT,GRAND THEFT FROM LOCKED AUTO
216,Origin,"1538 Fillmore St, San Francisco",37.784,-122.433,NON-CRIMINAL,"AIDED CASE, INJURED PERSON"
217,Origin,"1538 Fillmore St, San Francisco",37.784,-122.433,NON-CRIMINAL,"AIDED CASE, MENTAL DISTURBED"
218,Origin,"1538 Fillmore St, San Francisco",37.784,-122.433,NON-CRIMINAL,AIDED CASE
219,F8,"1192 Folsom St, San Francisco",37.775,-122.41,LARCENY/THEFT,PETTY THEFT FROM LOCKED AUTO
220,F8,"1192 Folsom St, San Francisco",37.775,-122.41,NON-CRIMINAL,FOUND PROPERTY
221,F8,"1192 Folsom St, San Francisco",37.775,-122.41,LARCENY/THEFT,PETTY THEFT FROM LOCKED AUTO
222,F8,"1192 Folsom St, San Francisco",37.775,-122.41,VEHICLE THEFT,STOLEN TRUCK
223,F8,"1192 Folsom St, San Francisco",37.775,-122.41,SUSPICIOUS OCC,SUSPICIOUS OCCURRENCE
224,F8,"1192 Folsom St, San Francisco",37.775,-122.41,WARRANTS,WARRANT ARREST
225,F8,"1192 Folsom St, San Francisco",37.775,-122.41,RECOVERED VEHICLE,"VEHICLE, RECOVERED, AUTO"
226,F8,"1192 Folsom St, San Francisco",37.775,-122.41,DRUG/NARCOTIC,POSSESSION OF NARCOTICS PARAPHERNALIA
227,F8,"1192 Folsom St, San Francisco",37.775,-122.41,OTHER OFFENSES,PAROLE VIOLATION
228,F8,"1192 Folsom St, San Francisco",37.775,-122.41,BURGLARY,"BURGLARY, FORCIBLE ENTRY"
229,F8,"1192 Folsom St, San Francisco",37.775,-122.41,LARCENY/THEFT,GRAND THEFT PICKPOCKET
230,F8,"1192 Folsom St, San Francisco",37.775,-122.41,DRUG/NARCOTIC,POSSESSION OF MARIJUANA
231,F8,"1192 Folsom St, San Francisco",37.775,-122.41,DRUG/NARCOTIC,POSSESSION OF METH-AMPHETAMINE
232,F8,"1192 Folsom St, San Francisco",37.775,-122.41,OTHER OFFENSES,"DRIVERS LICENSE, SUSPENDED OR REVOKED"
233,F8,"1192 Folsom St, San Francisco",37.775,-122.41,LARCENY/THEFT,PETTY THEFT FROM LOCKED AUTO
234,F8,"1192 Folsom St, San Francisco",37.775,-122.41,ASSAULT,BATTERY
235,F8,"1192 Folsom St, San Francisco",37.775,-122.41,DRIVING UNDER THE INFLUENCE,DRIVING WHILE UNDER THE INFLUENCE OF DRUGS
236,F8,"1192 Folsom St, San Francisco",37.775,-122.41,DISORDERLY CONDUCT,"DISTURBING THE PEACE, FIGHTING"
237,F8,"1192 Folsom St, San Francisco",37.775,-122.41,OTHER OFFENSES,POSSESSION OF BURGLARY TOOLS
238,F8,"1192 Folsom St, San Francisco",37.775,-122.41,WARRANTS,WARRANT ARREST
239,F8,"1192 Folsom St, San Francisco",37.775,-122.41,"SEX OFFENSES, FORCIBLE",SEXUAL BATTERY
240,F8,"1192 Folsom St, San Francisco",37.775,-122.41,ASSAULT,FALSE IMPRISONMENT
241,F8,"1192 Folsom St, San Francisco",37.775,-122.41,OTHER OFFENSES,CONSPIRACY
242,F8,"1192 Folsom St, San Francisco",37.775,-122.41,LARCENY/THEFT,ATTEMPTED SHOPLIFTING
243,F8,"1192 Folsom St, San Francisco",37.775,-122.41,ASSAULT,BATTERY
244,F8,"1192 Folsom St, San Francisco",37.775,-122.41,OTHER OFFENSES,TRAFFIC VIOLATION
245,F8,"1192 Folsom St, San Francisco",37.775,-122.41,OTHER OFFENSES,"DRIVERS LICENSE, SUSPENDED OR REVOKED"
246,F8,"1192 Folsom St, San Francisco",37.775,-122.41,DRIVING UNDER THE INFLUENCE,DRIVING WHILE UNDER THE INFLUENCE OF ALCOHOL
247,F8,"1192 Folsom St, San Francisco",37.775,-122.41,OTHER OFFENSES,"DRIVERS LICENSE, SUSPENDED OR REVOKED"
248,F8,"1192 Folsom St, San Francisco",37.775,-122.41,VEHICLE THEFT,STOLEN AUTOMOBILE
249,F8,"1192 Folsom St, San Francisco",37.775,-122.41,OTHER OFFENSES,RESISTING ARREST
250,F8,"1192 Folsom St, San Francisco",37.775,-122.41,OTHER OFFENSES,TRAFFIC VIOLATION ARREST
251,F8,"1192 Folsom St, San Francisco",37.775,-122.41,OTHER OFFENSES,TRAFFIC VIOLATION
252,F8,"1192 Folsom St, San Francisco",37.775,-122.41,LARCENY/THEFT,PETTY THEFT FROM LOCKED AUTO
253,F8,"1192 Folsom St, San Francisco",37.775,-122.41,SUSPICIOUS OCC,INVESTIGATIVE DETENTION
254,F8,"1192 Folsom St, San Francisco",37.775,-122.41,LARCENY/THEFT,GRAND THEFT FROM LOCKED AUTO
255,F8,"1192 Folsom St, San Francisco",37.775,-122.41,OTHER OFFENSES,TRAFFIC VIOLATION
256,F8,"1192 Folsom St, San Francisco",37.775,-122.41,ROBBERY,"ROBBERY, BODILY FORCE"
257,F8,"1192 Folsom St, San Francisco",37.775,-122.41,LARCENY/THEFT,PETTY THEFT FROM LOCKED AUTO
258,F8,"1192 Folsom St, San Francisco",37.775,-122.41,OTHER OFFENSES,PROBATION VIOLATION
259,F8,"1192 Folsom St, San Francisco",37.775,-122.41,OTHER OFFENSES,TRAFFIC VIOLATION ARREST
260,F8,"1192 Folsom St, San Francisco",37.775,-122.41,OTHER OFFENSES,"DRIVERS LICENSE, SUSPENDED OR REVOKED"
261,F8,"1192 Folsom St, San Francisco",37.775,-122.41,VANDALISM,"MALICIOUS MISCHIEF, VANDALISM OF VEHICLES"
262,F8,"1192 Folsom St, San Francisco",37.775,-122.41,SUSPICIOUS OCC,INVESTIGATIVE DETENTION
263,F8,"1192 Folsom St, San Francisco",37.775,-122.41,VANDALISM,"MALICIOUS MISCHIEF, VANDALISM OF VEHICLES"
264,F8,"1192 Folsom St, San Francisco",37.775,-122.41,VANDALISM,"MALICIOUS MISCHIEF, VANDALISM"
265,F8,"1192 Folsom St, San Francisco",37.775,-122.41,MISSING PERSON,FOUND PERSON
266,F8,"1192 Folsom St, San Francisco",37.775,-122.41,VEHICLE THEFT,STOLEN AUTOMOBILE
267,F8,"1192 Folsom St, San Francisco",37.775,-122.41,LARCENY/THEFT,GRAND THEFT FROM LOCKED AUTO
268,F8,"1192 Folsom St, San Francisco",37.775,-122.41,OTHER OFFENSES,"DRIVERS LICENSE, SUSPENDED OR REVOKED"
269,F8,"1192 Folsom St, San Francisco",37.775,-122.41,OTHER OFFENSES,PROBATION VIOLATION
270,F8,"1192 Folsom St, San Francisco",37.775,-122.41,OTHER OFFENSES,POSSESSION OF BURGLARY TOOLS W/PRIORS
271,F8,"1192 Folsom St, San Francisco",37.775,-122.41,OTHER OFFENSES,RESISTING ARREST
272,F8,"1192 Folsom St, San Francisco",37.775,-122.41,OTHER OFFENSES,TRAFFIC VIOLATION ARREST
273,F8,"1192 Folsom St, San Francisco",37.775,-122.41,ASSAULT,AGGRAVATED ASSAULT WITH A DEADLY WEAPON
274,F8,"1192 Folsom St, San Francisco",37.775,-122.41,ASSAULT,AGGRAVATED ASSAULT WITH BODILY FORCE
275,F8,"1192 Folsom St, San Francisco",37.775,-122.41,ASSAULT,BATTERY
276,F8,"1192 Folsom St, San Francisco",37.775,-122.41,LARCENY/THEFT,GRAND THEFT FROM PERSON
277,F8,"1192 Folsom St, San Francisco",37.775,-122.41,NON-CRIMINAL,PROPERTY FOR IDENTIFICATION
278,F8,"1192 Folsom St, San Francisco",37.775,-122.41,OTHER OFFENSES,TRAFFIC VIOLATION ARREST
279,F8,"1192 Folsom St, San Francisco",37.775,-122.41,OTHER OFFENSES,"DRIVERS LICENSE, SUSPENDED OR REVOKED"
280,F8,"1192 Folsom St, San Francisco",37.775,-122.41,OTHER OFFENSES,"DRIVERS LICENSE, SUSPENDED OR REVOKED"
281,F8,"1192 Folsom St, San Francisco",37.775,-122.41,LARCENY/THEFT,GRAND THEFT FROM PERSON
282,F8,"1192 Folsom St, San Francisco",37.775,-122.41,LARCENY/THEFT,PETTY THEFT FROM LOCKED AUTO
283,F8,"1192 Folsom St, San Francisco",37.775,-122.41,OTHER OFFENSES,TRAFFIC VIOLATION ARREST
284,F8,"1192 Folsom St, San Francisco",37.775,-122.41,OTHER OFFENSES,"DRIVERS LICENSE, SUSPENDED OR REVOKED"
285,F8,"1192 Folsom St, San Francisco",37.775,-122.41,ROBBERY,"ROBBERY ON THE STREET, STRONGARM"
286,F8,"1192 Folsom St, San Francisco",37.775,-122.41,ASSAULT,AGGRAVATED ASSAULT WITH BODILY FORCE
287,F8,"1192 Folsom St, San Francisco",37.775,-122.41,LARCENY/THEFT,GRAND THEFT FROM LOCKED AUTO
288,F8,"1192 Folsom St, San Francisco",37.775,-122.41,LARCENY/THEFT,GRAND THEFT FROM LOCKED AUTO
289,F8,"1192 Folsom St, San Francisco",37.775,-122.41,NON-CRIMINAL,"AIDED CASE, MENTAL DISTURBED"
290,F8,"1192 Folsom St, San Francisco",37.775,-122.41,RECOVERED VEHICLE,RECOVERED VEHICLE - STOLEN OUTSIDE SF
291,F8,"1192 Folsom St, San Francisco",37.775,-122.41,OTHER OFFENSES,"DRIVERS LICENSE, SUSPENDED OR REVOKED"
292,F8,"1192 Folsom St, San Francisco",37.775,-122.41,LARCENY/THEFT,GRAND THEFT FROM LOCKED AUTO
293,F8,"1192 Folsom St, San Francisco",37.775,-122.41,LARCENY/THEFT,PETTY THEFT FROM A BUILDING
294,F8,"1192 Folsom St, San Francisco",37.775,-122.41,LARCENY/THEFT,GRAND THEFT FROM LOCKED AUTO
295,F8,"1192 Folsom St, San Francisco",37.775,-122.41,NON-CRIMINAL,LOST PROPERTY
296,F8,"1192 Folsom St, San Francisco",37.775,-122.41,LARCENY/THEFT,PETTY THEFT OF PROPERTY
297,F8,"1192 Folsom St, San Francisco",37.775,-122.41,LARCENY/THEFT,GRAND THEFT FROM LOCKED AUTO
298,F8,"1192 Folsom St, San Francisco",37.775,-122.41,LARCENY/THEFT,PETTY THEFT OF PROPERTY
299,F8,"1192 Folsom St, San Francisco",37.775,-122.41,LARCENY/THEFT,PETTY THEFT OF PROPERTY
300,F8,"1192 Folsom St, San Francisco",37.775,-122.41,LARCENY/THEFT,GRAND THEFT FROM LOCKED AUTO
301,F8,"1192 Folsom St, San Francisco",37.775,-122.41,LARCENY/THEFT,GRAND THEFT FROM LOCKED AUTO
302,F8,"1192 Folsom St, San Francisco",37.775,-122.41,LARCENY/THEFT,GRAND THEFT FROM LOCKED AUTO
303,F8,"1192 Folsom St, San Francisco",37.775,-122.41,LARCENY/THEFT,GRAND THEFT OF PROPERTY
304,F8,"1192 Folsom St, San Francisco",37.775,-122.41,LARCENY/THEFT,GRAND THEFT FROM LOCKED AUTO
305,F8,"1192 Folsom St, San Francisco",37.775,-122.41,LARCENY/THEFT,GRAND THEFT FROM LOCKED AUTO
306,F8,"1192 Folsom St, San Francisco",37.775,-122.41,LARCENY/THEFT,GRAND THEFT FROM LOCKED AUTO
307,F8,"1192 Folsom St, San Francisco",37.775,-122.41,LARCENY/THEFT,PETTY THEFT OF PROPERTY
308,F8,"1192 Folsom St, San Francisco",37.775,-122.41,LARCENY/THEFT,GRAND THEFT FROM LOCKED AUTO
309,F8,"1192 Folsom St, San Francisco",37.775,-122.41,LARCENY/THEFT,GRAND THEFT FROM LOCKED AUTO
310,F8,"1192 Folsom St, San Francisco",37.775,-122.41,LARCENY/THEFT,GRAND THEFT FROM LOCKED AUTO
311,F8,"1192 Folsom St, San Francisco",37.775,-122.41,LARCENY/THEFT,GRAND THEFT FROM LOCKED AUTO
312,F8,"1192 Folsom St, San Francisco",37.775,-122.41,LARCENY/THEFT,GRAND THEFT FROM LOCKED AUTO
313,F8,"1192 Folsom St, San Francisco",37.775,-122.41,LARCENY/THEFT,GRAND THEFT FROM LOCKED AUTO
314,F8,"1192 Folsom St, San Francisco",37.775,-122.41,LARCENY/THEFT,GRAND THEFT FROM LOCKED AUTO
315,F8,"1192 Folsom St, San Francisco",37.775,-122.41,NON-CRIMINAL,LOST PROPERTY
316,F8,"1192 Folsom St, San Francisco",37.775,-122.41,VANDALISM,"MALICIOUS MISCHIEF, VANDALISM"
317,F8,"1192 Folsom St, San Francisco",37.775,-122.41,LARCENY/THEFT,GRAND THEFT FROM LOCKED AUTO
318,F8,"1192 Folsom St, San Francisco",37.775,-122.41,VANDALISM,"MALICIOUS MISCHIEF, VANDALISM"
319,F8,"1192 Folsom St, San Francisco",37.775,-122.41,LARCENY/THEFT,GRAND THEFT FROM LOCKED AUTO
320,F8,"1192 Folsom St, San Francisco",37.775,-122.41,LARCENY/THEFT,GRAND THEFT FROM LOCKED AUTO
321,F8,"1192 Folsom St, San Francisco",37.775,-122.41,LARCENY/THEFT,GRAND THEFT FROM LOCKED AUTO
322,F8,"1192 Folsom St, San Francisco",37.775,-122.41,LARCENY/THEFT,GRAND THEFT FROM LOCKED AUTO
323,F8,"1192 Folsom St, San Francisco",37.775,-122.41,LARCENY/THEFT,GRAND THEFT FROM LOCKED AUTO
324,F8,"1192 Folsom St, San Francisco",37.775,-122.41,BURGLARY,"BURGLARY, FORCIBLE ENTRY"
325,F8,"1192 Folsom St, San Francisco",37.775,-122.41,WARRANTS,WARRANT ARREST
326,F8,"1192 Folsom St, San Francisco",37.775,-122.41,LARCENY/THEFT,PETTY THEFT FROM LOCKED AUTO
327,F8,"1192 Folsom St, San Francisco",37.775,-122.41,SUSPICIOUS OCC,INVESTIGATIVE DETENTION
328,F8,"1192 Folsom St, San Francisco",37.775,-122.41,OTHER OFFENSES,TRAFFIC VIOLATION ARREST
329,F8,"1192 Folsom St, San Francisco",37.775,-122.41,OTHER OFFENSES,"DRIVERS LICENSE, SUSPENDED OR REVOKED"
330,F8,"1192 Folsom St, San Francisco",37.775,-122.41,NON-CRIMINAL,LOST PROPERTY
331,The Grand,"520 4th St, San Francisco",37.779,-122.398,STOLEN PROPERTY,"STOLEN ACCESS CARD, POSSESSION"
332,The Grand,"520 4th St, San Francisco",37.779,-122.398,NON-CRIMINAL,LOST PROPERTY
333,The Grand,"520 4th St, San Francisco",37.779,-122.398,VEHICLE THEFT,STOLEN AUTOMOBILE
334,The Grand,"520 4th St, San Francisco",37.779,-122.398,FRAUD,"CREDIT CARD, THEFT BY USE OF"
335,The Grand,"520 4th St, San Francisco",37.779,-122.398,LARCENY/THEFT,GRAND THEFT FROM LOCKED AUTO
336,The Grand,"520 4th St, San Francisco",37.779,-122.398,SUSPICIOUS OCC,INVESTIGATIVE DETENTION
337,The Grand,"520 4th St, San Francisco",37.779,-122.398,SUSPICIOUS OCC,INVESTIGATIVE DETENTION
338,The Grand,"520 4th St, San Francisco",37.779,-122.398,OTHER OFFENSES,MISCELLANEOUS INVESTIGATION
339,The Grand,"520 4th St, San Francisco",37.779,-122.398,LARCENY/THEFT,ATTEMPTED THEFT FROM LOCKED VEHICLE
340,The Grand,"520 4th St, San Francisco",37.779,-122.398,ASSAULT,AGGRAVATED ASSAULT WITH A DEADLY WEAPON
341,The Grand,"520 4th St, San Francisco",37.779,-122.398,VANDALISM,"MALICIOUS MISCHIEF, BREAKING WINDOWS"
342,The Grand,"520 4th St, San Francisco",37.779,-122.398,NON-CRIMINAL,"DEATH REPORT, CAUSE UNKNOWN"
343,The Grand,"520 4th St, San Francisco",37.779,-122.398,LARCENY/THEFT,GRAND THEFT FROM LOCKED AUTO
344,The Grand,"520 4th St, San Francisco",37.779,-122.398,NON-CRIMINAL,LOST PROPERTY
345,The Grand,"520 4th St, San Francisco",37.779,-122.398,ASSAULT,ATTEMPTED HOMICIDE WITH BODILY FORCE
346,The Grand,"520 4th St, San Francisco",37.779,-122.398,ASSAULT,AGGRAVATED ASSAULT WITH A GUN
347,The Grand,"520 4th St, San Francisco",37.779,-122.398,ASSAULT,BATTERY
348,The Grand,"520 4th St, San Francisco",37.779,-122.398,ASSAULT,BATTERY WITH SERIOUS INJURIES
349,The Grand,"520 4th St, San Francisco",37.779,-122.398,LARCENY/THEFT,GRAND THEFT FROM LOCKED AUTO
350,The Grand,"520 4th St, San Francisco",37.779,-122.398,LARCENY/THEFT,PETTY THEFT OF PROPERTY
351,The Grand,"520 4th St, San Francisco",37.779,-122.398,LARCENY/THEFT,GRAND THEFT FROM LOCKED AUTO
352,The Grand,"520 4th St, San Francisco",37.779,-122.398,NON-CRIMINAL,LOST PROPERTY
353,The Grand,"520 4th St, San Francisco",37.779,-122.398,LARCENY/THEFT,PETTY THEFT OF PROPERTY
354,The Grand,"520 4th St, San Francisco",37.779,-122.398,NON-CRIMINAL,LOST PROPERTY
355,The Grand,"520 4th St, San Francisco",37.779,-122.398,NON-CRIMINAL,LOST PROPERTY
356,The Holy Cow,"1535 Folsom St, San Francisco",37.771,-122.414,VANDALISM,"MALICIOUS MISCHIEF, BREAKING WINDOWS"
357,The Holy Cow,"1535 Folsom St, San Francisco",37.771,-122.414,VANDALISM,"MALICIOUS MISCHIEF, VANDALISM OF VEHICLES"
358,The Holy Cow,"1535 Folsom St, San Francisco",37.771,-122.414,VANDALISM,"MALICIOUS MISCHIEF, VANDALISM OF VEHICLES"
359,The Holy Cow,"1535 Folsom St, San Francisco",37.771,-122.414,SUSPICIOUS OCC,INVESTIGATIVE DETENTION
360,The Holy Cow,"1535 Folsom St, San Francisco",37.771,-122.414,WARRANTS,ENROUTE TO ADULT AUTHORITY
361,The Holy Cow,"1535 Folsom St, San Francisco",37.771,-122.414,WARRANTS,WARRANT ARREST
362,The Holy Cow,"1535 Folsom St, San Francisco",37.771,-122.414,VANDALISM,"MALICIOUS MISCHIEF, VANDALISM"
363,The Holy Cow,"1535 Folsom St, San Francisco",37.771,-122.414,LARCENY/THEFT,GRAND THEFT FROM UNLOCKED AUTO
364,The Holy Cow,"1535 Folsom St, San Francisco",37.771,-122.414,LARCENY/THEFT,PETTY THEFT OF PROPERTY
365,The Holy Cow,"1535 Folsom St, San Francisco",37.771,-122.414,LARCENY/THEFT,GRAND THEFT FROM LOCKED AUTO
366,George's Nightclub,"842 4th St, San Rafael",37.973,-122.525,,
367,Audio Nightclub,"316 11th St, San Francisco",37.771,-122.414,VANDALISM,"MALICIOUS MISCHIEF, BREAKING WINDOWS"
368,Audio Nightclub,"316 11th St, San Francisco",37.771,-122.414,VANDALISM,"MALICIOUS MISCHIEF, VANDALISM OF VEHICLES"
369,Audio Nightclub,"316 11th St, San Francisco",37.771,-122.414,VANDALISM,"MALICIOUS MISCHIEF, VANDALISM OF VEHICLES"
370,Audio Nightclub,"316 11th St, San Francisco",37.771,-122.414,SUSPICIOUS OCC,INVESTIGATIVE DETENTION
371,Audio Nightclub,"316 11th St, San Francisco",37.771,-122.414,WARRANTS,ENROUTE TO ADULT AUTHORITY
372,Audio Nightclub,"316 11th St, San Francisco",37.771,-122.414,WARRANTS,WARRANT ARREST
373,Audio Nightclub,"316 11th St, San Francisco",37.771,-122.414,VANDALISM,"MALICIOUS MISCHIEF, VANDALISM"
374,Audio Nightclub,"316 11th St, San Francisco",37.771,-122.414,LARCENY/THEFT,GRAND THEFT FROM UNLOCKED AUTO
375,Audio Nightclub,"316 11th St, San Francisco",37.771,-122.414,LARCENY/THEFT,PETTY THEFT OF PROPERTY
376,Audio Nightclub,"316 11th St, San Francisco",37.771,-122.414,LARCENY/THEFT,GRAND THEFT FROM LOCKED AUTO
377,1015 Folsom,"1015 Folsom St, San Francisco",37.778,-122.406,ASSAULT,BATTERY
378,1015 Folsom,"1015 Folsom St, San Francisco",37.778,-122.406,SUSPICIOUS OCC,SUSPICIOUS OCCURRENCE
379,1015 Folsom,"1015 Folsom St, San Francisco",37.778,-122.406,MISSING PERSON,MISSING ADULT
380,1015 Folsom,"1015 Folsom St, San Francisco",37.778,-122.406,VEHICLE THEFT,STOLEN AUTOMOBILE
381,1015 Folsom,"1015 Folsom St, San Francisco",37.778,-122.406,ASSAULT,BATTERY
382,1015 Folsom,"1015 Folsom St, San Francisco",37.778,-122.406,NON-CRIMINAL,LOST PROPERTY
383,1015 Folsom,"1015 Folsom St, San Francisco",37.778,-122.406,NON-CRIMINAL,LOST PROPERTY
384,1015 Folsom,"1015 Folsom St, San Francisco",37.778,-122.406,LARCENY/THEFT,PETTY THEFT OF PROPERTY
385,1015 Folsom,"1015 Folsom St, San Francisco",37.778,-122.406,LARCENY/THEFT,GRAND THEFT FROM PERSON
386,1015 Folsom,"1015 Folsom St, San Francisco",37.778,-122.406,BURGLARY,"BURGLARY OF RESIDENCE, UNLAWFUL ENTRY"
387,1015 Folsom,"1015 Folsom St, San Francisco",37.778,-122.406,NON-CRIMINAL,LOST PROPERTY
388,1015 Folsom,"1015 Folsom St, San Francisco",37.778,-122.406,LARCENY/THEFT,PETTY THEFT FROM LOCKED AUTO
389,1015 Folsom,"1015 Folsom St, San Francisco",37.778,-122.406,LARCENY/THEFT,GRAND THEFT PICKPOCKET
390,1015 Folsom,"1015 Folsom St, San Francisco",37.778,-122.406,LARCENY/THEFT,GRAND THEFT FROM PERSON
391,1015 Folsom,"1015 Folsom St, San Francisco",37.778,-122.406,ASSAULT,AGGRAVATED ASSAULT WITH BODILY FORCE
392,1015 Folsom,"1015 Folsom St, San Francisco",37.778,-122.406,ASSAULT,AGGRAVATED ASSAULT WITH BODILY FORCE
393,1015 Folsom,"1015 Folsom St, San Francisco",37.778,-122.406,OTHER OFFENSES,CONSPIRACY
394,1015 Folsom,"1015 Folsom St, San Francisco",37.778,-122.406,DISORDERLY CONDUCT,COMMITTING PUBLIC NUISANCE
395,1015 Folsom,"1015 Folsom St, San Francisco",37.778,-122.406,OTHER OFFENSES,VIOLATION OF MUNICIPAL CODE
396,1015 Folsom,"1015 Folsom St, San Francisco",37.778,-122.406,VANDALISM,"MALICIOUS MISCHIEF, VANDALISM OF VEHICLES"
397,1015 Folsom,"1015 Folsom St, San Francisco",37.778,-122.406,OTHER OFFENSES,FALSE PERSONATION TO RECEIVE MONEY OR PROPERTY
398,1015 Folsom,"1015 Folsom St, San Francisco",37.778,-122.406,LARCENY/THEFT,GRAND THEFT PICKPOCKET
399,1015 Folsom,"1015 Folsom St, San Francisco",37.778,-122.406,ASSAULT,AGGRAVATED ASSAULT WITH BODILY FORCE
400,1015 Folsom,"1015 Folsom St, San Francisco",37.778,-122.406,ASSAULT,BATTERY
401,1015 Folsom,"1015 Folsom St, San Francisco",37.778,-122.406,ASSAULT,CHILD ABUSE (PHYSICAL)
402,1015 Folsom,"1015 Folsom St, San Francisco",37.778,-122.406,ASSAULT,INFLICT INJURY ON COHABITEE
403,1015 Folsom,"1015 Folsom St, San Francisco",37.778,-122.406,LARCENY/THEFT,GRAND THEFT FROM PERSON
404,1015 Folsom,"1015 Folsom St, San Francisco",37.778,-122.406,LARCENY/THEFT,GRAND THEFT PICKPOCKET
405,1015 Folsom,"1015 Folsom St, San Francisco",37.778,-122.406,LARCENY/THEFT,PETTY THEFT FROM LOCKED AUTO
406,1015 Folsom,"1015 Folsom St, San Francisco",37.778,-122.406,LARCENY/THEFT,GRAND THEFT FROM LOCKED AUTO
407,1015 Folsom,"1015 Folsom St, San Francisco",37.778,-122.406,VEHICLE THEFT,STOLEN TRUCK
408,1015 Folsom,"1015 Folsom St, San Francisco",37.778,-122.406,VEHICLE THEFT,STOLEN AUTOMOBILE
409,1015 Folsom,"1015 Folsom St, San Francisco",37.778,-122.406,ASSAULT,BATTERY
410,1015 Folsom,"1015 Folsom St, San Francisco",37.778,-122.406,VANDALISM,"MALICIOUS MISCHIEF, VANDALISM OF VEHICLES"
411,1015 Folsom,"1015 Folsom St, San Francisco",37.778,-122.406,ASSAULT,AGGRAVATED ASSAULT WITH A DEADLY WEAPON
412,1015 Folsom,"1015 Folsom St, San Francisco",37.778,-122.406,DRIVING UNDER THE INFLUENCE,"DRIVING WHILE UNDER THE INFLUENCE OF ALCOHOL, W/INJURY"
413,1015 Folsom,"1015 Folsom St, San Francisco",37.778,-122.406,OTHER OFFENSES,MISCELLANEOUS INVESTIGATION
414,1015 Folsom,"1015 Folsom St, San Francisco",37.778,-122.406,OTHER OFFENSES,"TRAFFIC COLLISION, HIT & RUN, PROPERTY DAMAGE"
415,1015 Folsom,"1015 Folsom St, San Francisco",37.778,-122.406,MISSING PERSON,FOUND PERSON
416,1015 Folsom,"1015 Folsom St, San Francisco",37.778,-122.406,OTHER OFFENSES,"DRIVERS LICENSE, SUSPENDED OR REVOKED"
417,1015 Folsom,"1015 Folsom St, San Francisco",37.778,-122.406,BURGLARY,"BURGLARY, UNLAWFUL ENTRY"
418,1015 Folsom,"1015 Folsom St, San Francisco",37.778,-122.406,BURGLARY,"BURGLARY, FORCIBLE ENTRY"
419,1015 Folsom,"1015 Folsom St, San Francisco",37.778,-122.406,ASSAULT,BATTERY
420,1015 Folsom,"1015 Folsom St, San Francisco",37.778,-122.406,ASSAULT,BATTERY
421,1015 Folsom,"1015 Folsom St, San Francisco",37.778,-122.406,LARCENY/THEFT,GRAND THEFT FROM PERSON
422,1015 Folsom,"1015 Folsom St, San Francisco",37.778,-122.406,ASSAULT,BATTERY
423,1015 Folsom,"1015 Folsom St, San Francisco",37.778,-122.406,ASSAULT,AGGRAVATED ASSAULT WITH A DEADLY WEAPON
424,1015 Folsom,"1015 Folsom St, San Francisco",37.778,-122.406,ASSAULT,AGGRAVATED ASSAULT WITH BODILY FORCE
425,1015 Folsom,"1015 Folsom St, San Francisco",37.778,-122.406,ASSAULT,MAYHEM WITH BODILY FORCE
426,1015 Folsom,"1015 Folsom St, San Francisco",37.778,-122.406,ASSAULT,BATTERY WITH SERIOUS INJURIES
427,1015 Folsom,"1015 Folsom St, San Francisco",37.778,-122.406,ASSAULT,FALSE IMPRISONMENT
428,1015 Folsom,"1015 Folsom St, San Francisco",37.778,-122.406,OTHER OFFENSES,PROBATION VIOLATION
429,1015 Folsom,"1015 Folsom St, San Francisco",37.778,-122.406,DISORDERLY CONDUCT,COMMITTING PUBLIC NUISANCE
430,1015 Folsom,"1015 Folsom St, San Francisco",37.778,-122.406,SUSPICIOUS OCC,INVESTIGATIVE DETENTION
431,1015 Folsom,"1015 Folsom St, San Francisco",37.778,-122.406,LARCENY/THEFT,PETTY THEFT OF PROPERTY
432,1015 Folsom,"1015 Folsom St, San Francisco",37.778,-122.406,NON-CRIMINAL,LOST PROPERTY
433,1015 Folsom,"1015 Folsom St, San Francisco",37.778,-122.406,LARCENY/THEFT,PETTY THEFT OF PROPERTY
434,1015 Folsom,"1015 Folsom St, San Francisco",37.778,-122.406,LARCENY/THEFT,GRAND THEFT FROM LOCKED AUTO
435,1015 Folsom,"1015 Folsom St, San Francisco",37.778,-122.406,LARCENY/THEFT,PETTY THEFT OF PROPERTY
436,1015 Folsom,"1015 Folsom St, San Francisco",37.778,-122.406,LARCENY/THEFT,PETTY THEFT OF PROPERTY
437,1015 Folsom,"1015 Folsom St, San Francisco",37.778,-122.406,LARCENY/THEFT,PETTY THEFT OF PROPERTY
438,1015 Folsom,"1015 Folsom St, San Francisco",37.778,-122.406,LARCENY/THEFT,PETTY THEFT OF PROPERTY
439,1015 Folsom,"1015 Folsom St, San Francisco",37.778,-122.406,LARCENY/THEFT,GRAND THEFT FROM LOCKED AUTO
440,1015 Folsom,"1015 Folsom St, San Francisco",37.778,-122.406,LARCENY/THEFT,PETTY THEFT OF PROPERTY
441,1015 Folsom,"1015 Folsom St, San Francisco",37.778,-122.406,LARCENY/THEFT,PETTY THEFT OF PROPERTY
442,1015 Folsom,"1015 Folsom St, San Francisco",37.778,-122.406,LARCENY/THEFT,PETTY THEFT OF PROPERTY
443,1015 Folsom,"1015 Folsom St, San Francisco",37.778,-122.406,NON-CRIMINAL,LOST PROPERTY
444,1015 Folsom,"1015 Folsom St, San Francisco",37.778,-122.406,LARCENY/THEFT,GRAND THEFT OF PROPERTY
445,1015 Folsom,"1015 Folsom St, San Francisco",37.778,-122.406,VANDALISM,"MALICIOUS MISCHIEF, VANDALISM"
446,1015 Folsom,"1015 Folsom St, San Francisco",37.778,-122.406,LARCENY/THEFT,PETTY THEFT OF PROPERTY
447,1015 Folsom,"1015 Folsom St, San Francisco",37.778,-122.406,NON-CRIMINAL,LOST PROPERTY
448,1015 Folsom,"1015 Folsom St, San Francisco",37.778,-122.406,LARCENY/THEFT,PETTY THEFT OF PROPERTY
449,1015 Folsom,"1015 Folsom St, San Francisco",37.778,-122.406,LARCENY/THEFT,GRAND THEFT FROM LOCKED AUTO
450,1015 Folsom,"1015 Folsom St, San Francisco",37.778,-122.406,LARCENY/THEFT,PETTY THEFT OF PROPERTY
451,1015 Folsom,"1015 Folsom St, San Francisco",37.778,-122.406,LARCENY/THEFT,PETTY THEFT OF PROPERTY
452,1015 Folsom,"1015 Folsom St, San Francisco",37.778,-122.406,LARCENY/THEFT,PETTY THEFT OF PROPERTY
453,1015 Folsom,"1015 Folsom St, San Francisco",37.778,-122.406,LARCENY/THEFT,PETTY THEFT OF PROPERTY
454,1015 Folsom,"1015 Folsom St, San Francisco",37.778,-122.406,NON-CRIMINAL,LOST PROPERTY
455,1015 Folsom,"1015 Folsom St, San Francisco",37.778,-122.406,NON-CRIMINAL,LOST PROPERTY
456,1015 Folsom,"1015 Folsom St, San Francisco",37.778,-122.406,LARCENY/THEFT,PETTY THEFT OF PROPERTY
457,1015 Folsom,"1015 Folsom St, San Francisco",37.778,-122.406,NON-CRIMINAL,LOST PROPERTY
458,1015 Folsom,"1015 Folsom St, San Francisco",37.778,-122.406,LARCENY/THEFT,GRAND THEFT FROM LOCKED AUTO
459,1015 Folsom,"1015 Folsom St, San Francisco",37.778,-122.406,LARCENY/THEFT,PETTY THEFT OF PROPERTY
460,1015 Folsom,"1015 Folsom St, San Francisco",37.778,-122.406,LARCENY/THEFT,PETTY THEFT OF PROPERTY
461,1015 Folsom,"1015 Folsom St, San Francisco",37.778,-122.406,SUSPICIOUS OCC,SUSPICIOUS OCCURRENCE
462,1015 Folsom,"1015 Folsom St, San Francisco",37.778,-122.406,LARCENY/THEFT,PETTY THEFT OF PROPERTY
463,1015 Folsom,"1015 Folsom St, San Francisco",37.778,-122.406,LARCENY/THEFT,GRAND THEFT FROM LOCKED AUTO
464,1015 Folsom,"1015 Folsom St, San Francisco",37.778,-122.406,LARCENY/THEFT,PETTY THEFT OF PROPERTY
465,1015 Folsom,"1015 Folsom St, San Francisco",37.778,-122.406,LARCENY/THEFT,PETTY THEFT OF PROPERTY
466,1015 Folsom,"1015 Folsom St, San Francisco",37.778,-122.406,LARCENY/THEFT,PETTY THEFT OF PROPERTY
467,1015 Folsom,"1015 Folsom St, San Francisco",37.778,-122.406,LARCENY/THEFT,GRAND THEFT FROM LOCKED AUTO
468,1015 Folsom,"1015 Folsom St, San Francisco",37.778,-122.406,LARCENY/THEFT,PETTY THEFT OF PROPERTY
469,1015 Folsom,"1015 Folsom St, San Francisco",37.778,-122.406,LARCENY/THEFT,PETTY THEFT OF PROPERTY
470,1015 Folsom,"1015 Folsom St, San Francisco",37.778,-122.406,NON-CRIMINAL,LOST PROPERTY
471,1015 Folsom,"1015 Folsom St, San Francisco",37.778,-122.406,NON-CRIMINAL,LOST PROPERTY
472,1015 Folsom,"1015 Folsom St, San Francisco",37.778,-122.406,NON-CRIMINAL,LOST PROPERTY
473,1015 Folsom,"1015 Folsom St, San Francisco",37.778,-122.406,LARCENY/THEFT,PETTY THEFT OF PROPERTY
474,1015 Folsom,"1015 Folsom St, San Francisco",37.778,-122.406,NON-CRIMINAL,LOST PROPERTY
475,1015 Folsom,"1015 Folsom St, San Francisco",37.778,-122.406,NON-CRIMINAL,LOST PROPERTY
476,1015 Folsom,"1015 Folsom St, San Francisco",37.778,-122.406,NON-CRIMINAL,LOST PROPERTY
477,1015 Folsom,"1015 Folsom St, San Francisco",37.778,-122.406,LARCENY/THEFT,GRAND THEFT FROM LOCKED AUTO
478,1015 Folsom,"1015 Folsom St, San Francisco",37.778,-122.406,LARCENY/THEFT,GRAND THEFT FROM LOCKED AUTO
479,1015 Folsom,"1015 Folsom St, San Francisco",37.778,-122.406,NON-CRIMINAL,LOST PROPERTY
480,1015 Folsom,"1015 Folsom St, San Francisco",37.778,-122.406,LARCENY/THEFT,GRAND THEFT FROM UNLOCKED AUTO
481,1015 Folsom,"1015 Folsom St, San Francisco",37.778,-122.406,LARCENY/THEFT,PETTY THEFT OF PROPERTY
482,1015 Folsom,"1015 Folsom St, San Francisco",37.778,-122.406,LARCENY/THEFT,PETTY THEFT OF PROPERTY
483,1015 Folsom,"1015 Folsom St, San Francisco",37.778,-122.406,LARCENY/THEFT,PETTY THEFT OF PROPERTY
484,1015 Folsom,"1015 Folsom St, San Francisco",37.778,-122.406,NON-CRIMINAL,LOST PROPERTY
485,1015 Folsom,"1015 Folsom St, San Francisco",37.778,-122.406,ASSAULT,BATTERY
486,1015 Folsom,"1015 Folsom St, San Francisco",37.778,-122.406,LARCENY/THEFT,PETTY THEFT FROM LOCKED AUTO
487,1015 Folsom,"1015 Folsom St, San Francisco",37.778,-122.406,MISSING PERSON,MISSING ADULT
488,1015 Folsom,"1015 Folsom St, San Francisco",37.778,-122.406,LARCENY/THEFT,GRAND THEFT PICKPOCKET
489,1015 Folsom,"1015 Folsom St, San Francisco",37.778,-122.406,DRUG/NARCOTIC,POSSESSION OF NARCOTICS PARAPHERNALIA
490,1015 Folsom,"1015 Folsom St, San Francisco",37.778,-122.406,LARCENY/THEFT,PETTY THEFT OF PROPERTY
491,1015 Folsom,"1015 Folsom St, San Francisco",37.778,-122.406,LARCENY/THEFT,GRAND THEFT FROM LOCKED AUTO
492,1015 Folsom,"1015 Folsom St, San Francisco",37.778,-122.406,NON-CRIMINAL,LOST PROPERTY
493,1015 Folsom,"1015 Folsom St, San Francisco",37.778,-122.406,ASSAULT,BATTERY
494,OASIS,"298 11th St, San Francisco",37.772,-122.414,ASSAULT,BATTERY
495,OASIS,"298 11th St, San Francisco",37.772,-122.414,ASSAULT,AGGRAVATED ASSAULT WITH A GUN
496,OASIS,"298 11th St, San Francisco",37.772,-122.414,LARCENY/THEFT,GRAND THEFT FROM LOCKED AUTO
497,OASIS,"298 11th St, San Francisco",37.772,-122.414,ASSAULT,AGGRAVATED ASSAULT WITH BODILY FORCE
498,OASIS,"298 11th St, San Francisco",37.772,-122.414,BURGLARY,"BURGLARY, HOT PROWL, UNLAWFUL ENTRY"
499,OASIS,"298 11th St, San Francisco",37.772,-122.414,LARCENY/THEFT,PETTY THEFT FROM LOCKED AUTO
500,OASIS,"298 11th St, San Francisco",37.772,-122.414,SUSPICIOUS OCC,INVESTIGATIVE DETENTION
501,OASIS,"298 11th St, San Francisco",37.772,-122.414,OTHER OFFENSES,"DRIVERS LICENSE, SUSPENDED OR REVOKED"
502,OASIS,"298 11th St, San Francisco",37.772,-122.414,NON-CRIMINAL,"AIDED CASE, MENTAL DISTURBED"
503,OASIS,"298 11th St, San Francisco",37.772,-122.414,DRUNKENNESS,UNDER INFLUENCE OF ALCOHOL IN A PUBLIC PLACE
504,OASIS,"298 11th St, San Francisco",37.772,-122.414,OTHER OFFENSES,RESISTING ARREST
505,OASIS,"298 11th St, San Francisco",37.772,-122.414,VEHICLE THEFT,STOLEN TRUCK
506,OASIS,"298 11th St, San Francisco",37.772,-122.414,LARCENY/THEFT,GRAND THEFT FROM PERSON
507,OASIS,"298 11th St, San Francisco",37.772,-122.414,LARCENY/THEFT,GRAND THEFT FROM UNLOCKED AUTO
508,OASIS,"298 11th St, San Francisco",37.772,-122.414,LARCENY/THEFT,GRAND THEFT FROM LOCKED AUTO
509,OASIS,"298 11th St, San Francisco",37.772,-122.414,LARCENY/THEFT,PETTY THEFT FROM LOCKED AUTO
510,OASIS,"298 11th St, San Francisco",37.772,-122.414,ROBBERY,ROBBERY ON THE STREET WITH A GUN
511,OASIS,"298 11th St, San Francisco",37.772,-122.414,ASSAULT,"ASSAULT, AGGRAVATED, W/ GUN"
512,OASIS,"298 11th St, San Francisco",37.772,-122.414,LARCENY/THEFT,GRAND THEFT FROM UNLOCKED AUTO
513,OASIS,"298 11th St, San Francisco",37.772,-122.414,LARCENY/THEFT,GRAND THEFT FROM PERSON
514,OASIS,"298 11th St, San Francisco",37.772,-122.414,STOLEN PROPERTY,"STOLEN PROPERTY, POSSESSION WITH KNOWLEDGE, RECEIVING"
515,OASIS,"298 11th St, San Francisco",37.772,-122.414,SECONDARY CODES,JUVENILE INVOLVED
516,OASIS,"298 11th St, San Francisco",37.772,-122.414,OTHER OFFENSES,MISCELLANEOUS STATE MISDEMEANOR
517,OASIS,"298 11th St, San Francisco",37.772,-122.414,OTHER OFFENSES,TRAFFIC VIOLATION ARREST
518,OASIS,"298 11th St, San Francisco",37.772,-122.414,WEAPON LAWS,EXHIBITING DEADLY WEAPON IN A THREATING MANNER
519,OASIS,"298 11th St, San Francisco",37.772,-122.414,NON-CRIMINAL,FOUND PROPERTY
520,OASIS,"298 11th St, San Francisco",37.772,-122.414,RECOVERED VEHICLE,"VEHICLE, RECOVERED, AUTO"
521,OASIS,"298 11th St, San Francisco",37.772,-122.414,OTHER OFFENSES,EVADING A POLICE OFFICER RECKLESSLY
522,OASIS,"298 11th St, San Francisco",37.772,-122.414,ROBBERY,"ROBBERY, BODILY FORCE"
523,OASIS,"298 11th St, San Francisco",37.772,-122.414,DRUG/NARCOTIC,POSSESSION OF NARCOTICS PARAPHERNALIA
524,OASIS,"298 11th St, San Francisco",37.772,-122.414,LARCENY/THEFT,GRAND THEFT FROM PERSON
525,OASIS,"298 11th St, San Francisco",37.772,-122.414,NON-CRIMINAL,"AIDED CASE, MENTAL DISTURBED"
526,OASIS,"298 11th St, San Francisco",37.772,-122.414,LARCENY/THEFT,GRAND THEFT FROM LOCKED AUTO
527,OASIS,"298 11th St, San Francisco",37.772,-122.414,LARCENY/THEFT,PETTY THEFT FROM LOCKED AUTO
528,OASIS,"298 11th St, San Francisco",37.772,-122.414,ASSAULT,AGGRAVATED ASSAULT WITH A KNIFE
529,OASIS,"298 11th St, San Francisco",37.772,-122.414,ASSAULT,THREATS AGAINST LIFE
530,OASIS,"298 11th St, San Francisco",37.772,-122.414,WEAPON LAWS,"WEAPON, DEADLY, EXHIBITING TO RESIST ARREST"
531,OASIS,"298 11th St, San Francisco",37.772,-122.414,LARCENY/THEFT,PETTY THEFT FROM A BUILDING
532,OASIS,"298 11th St, San Francisco",37.772,-122.414,VEHICLE THEFT,STOLEN AUTOMOBILE
533,OASIS,"298 11th St, San Francisco",37.772,-122.414,NON-CRIMINAL,LOST PROPERTY
534,OASIS,"298 11th St, San Francisco",37.772,-122.414,OTHER OFFENSES,FALSE PERSONATION TO RECEIVE MONEY OR PROPERTY
535,OASIS,"298 11th St, San Francisco",37.772,-122.414,FRAUD,"FALSE PRETENSES, GRAND THEFT"
536,OASIS,"298 11th St, San Francisco",37.772,-122.414,BURGLARY,"BURGLARY, VEHICLE (ARREST MADE)"
537,OASIS,"298 11th St, San Francisco",37.772,-122.414,OTHER OFFENSES,CONSPIRACY
538,OASIS,"298 11th St, San Francisco",37.772,-122.414,OTHER OFFENSES,POSSESSION OF BURGLARY TOOLS
539,OASIS,"298 11th St, San Francisco",37.772,-122.414,OTHER OFFENSES,TRAFFIC VIOLATION ARREST
540,OASIS,"298 11th St, San Francisco",37.772,-122.414,OTHER OFFENSES,TRAFFIC VIOLATION
541,OASIS,"298 11th St, San Francisco",37.772,-122.414,ROBBERY,"ROBBERY, BODILY FORCE"
542,OASIS,"298 11th St, San Francisco",37.772,-122.414,LARCENY/THEFT,PETTY THEFT FROM LOCKED AUTO
543,OASIS,"298 11th St, San Francisco",37.772,-122.414,ASSAULT,INFLICT INJURY ON COHABITEE
544,OASIS,"298 11th St, San Francisco",37.772,-122.414,LARCENY/THEFT,GRAND THEFT PICKPOCKET
545,OASIS,"298 11th St, San Francisco",37.772,-122.414,NON-CRIMINAL,LOST PROPERTY
546,OASIS,"298 11th St, San Francisco",37.772,-122.414,LARCENY/THEFT,GRAND THEFT FROM LOCKED AUTO
547,OASIS,"298 11th St, San Francisco",37.772,-122.414,VANDALISM,"MALICIOUS MISCHIEF, VANDALISM"
548,OASIS,"298 11th St, San Francisco",37.772,-122.414,LARCENY/THEFT,GRAND THEFT FROM LOCKED AUTO
549,OASIS,"298 11th St, San Francisco",37.772,-122.414,LARCENY/THEFT,GRAND THEFT FROM LOCKED AUTO
550,OASIS,"298 11th St, San Francisco",37.772,-122.414,LARCENY/THEFT,PETTY THEFT OF PROPERTY
551,OASIS,"298 11th St, San Francisco",37.772,-122.414,LARCENY/THEFT,PETTY THEFT OF PROPERTY
552,OASIS,"298 11th St, San Francisco",37.772,-122.414,VANDALISM,"MALICIOUS MISCHIEF, VANDALISM"
553,OASIS,"298 11th St, San Francisco",37.772,-122.414,LARCENY/THEFT,PETTY THEFT OF PROPERTY
554,OASIS,"298 11th St, San Francisco",37.772,-122.414,LARCENY/THEFT,GRAND THEFT FROM LOCKED AUTO
555,OASIS,"298 11th St, San Francisco",37.772,-122.414,NON-CRIMINAL,LOST PROPERTY
556,OASIS,"298 11th St, San Francisco",37.772,-122.414,LARCENY/THEFT,GRAND THEFT FROM LOCKED AUTO
557,OASIS,"298 11th St, San Francisco",37.772,-122.414,LARCENY/THEFT,GRAND THEFT FROM LOCKED AUTO
558,OASIS,"298 11th St, San Francisco",37.772,-122.414,LARCENY/THEFT,PETTY THEFT OF PROPERTY
559,OASIS,"298 11th St, San Francisco",37.772,-122.414,LARCENY/THEFT,GRAND THEFT FROM UNLOCKED AUTO
560,OASIS,"298 11th St, San Francisco",37.772,-122.414,LARCENY/THEFT,GRAND THEFT FROM LOCKED AUTO
561,OASIS,"298 11th St, San Francisco",37.772,-122.414,LARCENY/THEFT,GRAND THEFT FROM LOCKED AUTO
562,OASIS,"298 11th St, San Francisco",37.772,-122.414,NON-CRIMINAL,LOST PROPERTY
563,OASIS,"298 11th St, San Francisco",37.772,-122.414,LARCENY/THEFT,GRAND THEFT FROM LOCKED AUTO
564,OASIS,"298 11th St, San Francisco",37.772,-122.414,LARCENY/THEFT,GRAND THEFT FROM UNLOCKED AUTO
565,OASIS,"298 11th St, San Francisco",37.772,-122.414,LARCENY/THEFT,PETTY THEFT OF PROPERTY
566,OASIS,"298 11th St, San Francisco",37.772,-122.414,LARCENY/THEFT,GRAND THEFT FROM LOCKED AUTO
567,OASIS,"298 11th St, San Francisco",37.772,-122.414,LARCENY/THEFT,PETTY THEFT OF PROPERTY
568,OASIS,"298 11th St, San Francisco",37.772,-122.414,LARCENY/THEFT,PETTY THEFT OF PROPERTY
569,OASIS,"298 11th St, San Francisco",37.772,-122.414,LARCENY/THEFT,GRAND THEFT OF PROPERTY
570,OASIS,"298 11th St, San Francisco",37.772,-122.414,LARCENY/THEFT,GRAND THEFT FROM UNLOCKED AUTO
571,OASIS,"298 11th St, San Francisco",37.772,-122.414,LARCENY/THEFT,GRAND THEFT FROM LOCKED AUTO
572,OASIS,"298 11th St, San Francisco",37.772,-122.414,LARCENY/THEFT,GRAND THEFT FROM LOCKED AUTO
573,OASIS,"298 11th St, San Francisco",37.772,-122.414,VANDALISM,"MALICIOUS MISCHIEF, VANDALISM"
574,OASIS,"298 11th St, San Francisco",37.772,-122.414,ASSAULT,BATTERY
575,OASIS,"298 11th St, San Francisco",37.772,-122.414,NON-CRIMINAL,TRAFFIC ACCIDENT
576,OASIS,"298 11th St, San Francisco",37.772,-122.414,ASSAULT,BATTERY
577,OASIS,"298 11th St, San Francisco",37.772,-122.414,ASSAULT,BATTERY
578,Harlot,"46 Minna St, San Francisco",37.789,-122.398,NON-CRIMINAL,LOST PROPERTY
579,Harlot,"46 Minna St, San Francisco",37.789,-122.398,STOLEN PROPERTY,"STOLEN PROPERTY, POSSESSION WITH KNOWLEDGE, RECEIVING"
580,Harlot,"46 Minna St, San Francisco",37.789,-122.398,WEAPON LAWS,DISCHARGE FIREARM WITHIN CITY LIMITS
581,Harlot,"46 Minna St, San Francisco",37.789,-122.398,WEAPON LAWS,POSS OF FIREARM BY CONVICTED FELON/ADDICT/ALIEN
582,Harlot,"46 Minna St, San Francisco",37.789,-122.398,RECOVERED VEHICLE,RECOVERED VEHICLE - STOLEN OUTSIDE SF
583,Harlot,"46 Minna St, San Francisco",37.789,-122.398,NON-CRIMINAL,FOUND PROPERTY
584,Harlot,"46 Minna St, San Francisco",37.789,-122.398,SUSPICIOUS OCC,SUSPICIOUS OCCURRENCE
585,Harlot,"46 Minna St, San Francisco",37.789,-122.398,ASSAULT,BATTERY
586,Harlot,"46 Minna St, San Francisco",37.789,-122.398,DRIVING UNDER THE INFLUENCE,DRIVING WHILE UNDER THE INFLUENCE OF ALCOHOL
587,Harlot,"46 Minna St, San Francisco",37.789,-122.398,NON-CRIMINAL,TRAFFIC ACCIDENT
588,Harlot,"46 Minna St, San Francisco",37.789,-122.398,LARCENY/THEFT,"LOST PROPERTY, PETTY THEFT"
589,Harlot,"46 Minna St, San Francisco",37.789,-122.398,LARCENY/THEFT,GRAND THEFT FROM A BUILDING
590,Harlot,"46 Minna St, San Francisco",37.789,-122.398,LARCENY/THEFT,GRAND THEFT OF PROPERTY
591,Harlot,"46 Minna St, San Francisco",37.789,-122.398,LARCENY/THEFT,PETTY THEFT OF PROPERTY
592,19 Broadway,"19 Broadway, Fairfax",37.987,-122.588,,
593,The Uptown Nightclub!,"1928 Telegraph Ave, Oakland",37.809,-122.27,,
594,Monarch,"101 6th St, San Francisco",37.781,-122.408,TRESPASS,LODGING WITHOUT PERMISSION
595,Monarch,"101 6th St, San Francisco",37.781,-122.408,DISORDERLY CONDUCT,COMMITTING PUBLIC NUISANCE
596,Monarch,"101 6th St, San Francisco",37.781,-122.408,GAMBLING,GAMBLING
597,Monarch,"101 6th St, San Francisco",37.781,-122.408,STOLEN PROPERTY,RECEIVING STOLEN PROPERTY
598,Monarch,"101 6th St, San Francisco",37.781,-122.408,NON-CRIMINAL,"STAY AWAY OR COURT ORDER, NON-DV RELATED"
599,Monarch,"101 6th St, San Francisco",37.781,-122.408,ROBBERY,"ROBBERY, BODILY FORCE"
600,Monarch,"101 6th St, San Francisco",37.781,-122.408,OTHER OFFENSES,PROBATION VIOLATION
601,Monarch,"101 6th St, San Francisco",37.781,-122.408,NON-CRIMINAL,"STAY AWAY OR COURT ORDER, NON-DV RELATED"
602,Monarch,"101 6th St, San Francisco",37.781,-122.408,ROBBERY,"ROBBERY, BODILY FORCE"
603,Monarch,"101 6th St, San Francisco",37.781,-122.408,OTHER OFFENSES,RESISTING ARREST
604,Monarch,"101 6th St, San Francisco",37.781,-122.408,ROBBERY,"ROBBERY ON THE STREET, STRONGARM"
605,Monarch,"101 6th St, San Francisco",37.781,-122.408,OTHER OFFENSES,POSSESSION OF BURGLARY TOOLS
606,Monarch,"101 6th St, San Francisco",37.781,-122.408,WARRANTS,WARRANT ARREST
607,Monarch,"101 6th St, San Francisco",37.781,-122.408,LARCENY/THEFT,PETTY THEFT FROM LOCKED AUTO
608,Monarch,"101 6th St, San Francisco",37.781,-122.408,ROBBERY,"ROBBERY, BODILY FORCE"
609,Monarch,"101 6th St, San Francisco",37.781,-122.408,DRUG/NARCOTIC,POSSESSION OF NARCOTICS PARAPHERNALIA
610,Monarch,"101 6th St, San Francisco",37.781,-122.408,DRUG/NARCOTIC,POSSESSION OF HEROIN
611,Monarch,"101 6th St, San Francisco",37.781,-122.408,WARRANTS,ENROUTE TO PROBATION OFFICER
612,Monarch,"101 6th St, San Francisco",37.781,-122.408,STOLEN PROPERTY,"STOLEN PROPERTY, POSSESSION WITH KNOWLEDGE, RECEIVING"
613,Monarch,"101 6th St, San Francisco",37.781,-122.408,STOLEN PROPERTY,"STOLEN PROPERTY, POSSESSION WITH KNOWLEDGE, RECEIVING"
614,Monarch,"101 6th St, San Francisco",37.781,-122.408,WARRANTS,WARRANT ARREST
615,Monarch,"101 6th St, San Francisco",37.781,-122.408,OTHER OFFENSES,TRAFFIC VIOLATION ARREST
616,Monarch,"101 6th St, San Francisco",37.781,-122.408,OTHER OFFENSES,VIOLATION OF RESTRAINING ORDER
617,Monarch,"101 6th St, San Francisco",37.781,-122.408,ROBBERY,"ROBBERY, BODILY FORCE"
618,Monarch,"101 6th St, San Francisco",37.781,-122.408,GAMBLING,GAMBLING
619,Monarch,"101 6th St, San Francisco",37.781,-122.408,OTHER OFFENSES,RESISTING ARREST
620,Monarch,"101 6th St, San Francisco",37.781,-122.408,OTHER OFFENSES,"DRIVERS LICENSE, SUSPENDED OR REVOKED"
621,Monarch,"101 6th St, San Francisco",37.781,-122.408,DRUG/NARCOTIC,POSSESSION OF METH-AMPHETAMINE FOR SALE
622,Monarch,"101 6th St, San Francisco",37.781,-122.408,ASSAULT,BATTERY
623,Monarch,"101 6th St, San Francisco",37.781,-122.408,ASSAULT,BATTERY
624,Monarch,"101 6th St, San Francisco",37.781,-122.408,DRUG/NARCOTIC,POSSESSION OF METH-AMPHETAMINE FOR SALE
625,Monarch,"101 6th St, San Francisco",37.781,-122.408,OTHER OFFENSES,PROBATION VIOLATION
626,Monarch,"101 6th St, San Francisco",37.781,-122.408,ASSAULT,INFLICT INJURY ON COHABITEE
627,Monarch,"101 6th St, San Francisco",37.781,-122.408,WARRANTS,WARRANT ARREST
628,Monarch,"101 6th St, San Francisco",37.781,-122.408,ROBBERY,"ROBBERY, BODILY FORCE"
629,Monarch,"101 6th St, San Francisco",37.781,-122.408,ASSAULT,BATTERY
630,Monarch,"101 6th St, San Francisco",37.781,-122.408,DRUG/NARCOTIC,POSSESSION OF HEROIN FOR SALES
631,Monarch,"101 6th St, San Francisco",37.781,-122.408,LARCENY/THEFT,GRAND THEFT FROM LOCKED AUTO
632,Monarch,"101 6th St, San Francisco",37.781,-122.408,NON-CRIMINAL,"AIDED CASE, MENTAL DISTURBED"
633,Monarch,"101 6th St, San Francisco",37.781,-122.408,ASSAULT,THREATS AGAINST LIFE
634,Monarch,"101 6th St, San Francisco",37.781,-122.408,DRUG/NARCOTIC,POSSESSION OF METH-AMPHETAMINE
635,Monarch,"101 6th St, San Francisco",37.781,-122.408,ROBBERY,"ROBBERY, BODILY FORCE"
636,Monarch,"101 6th St, San Francisco",37.781,-122.408,DISORDERLY CONDUCT,COMMITTING PUBLIC NUISANCE
637,Monarch,"101 6th St, San Francisco",37.781,-122.408,TRESPASS,LODGING WITHOUT PERMISSION
638,Monarch,"101 6th St, San Francisco",37.781,-122.408,OTHER OFFENSES,"DRIVERS LICENSE, SUSPENDED OR REVOKED"
639,Monarch,"101 6th St, San Francisco",37.781,-122.408,LARCENY/THEFT,PETTY THEFT FROM A BUILDING
640,Monarch,"101 6th St, San Francisco",37.781,-122.408,FRAUD,"CREDIT CARD, THEFT BY USE OF"
641,Monarch,"101 6th St, San Francisco",37.781,-122.408,NON-CRIMINAL,"AIDED CASE, MENTAL DISTURBED"
642,Monarch,"101 6th St, San Francisco",37.781,-122.408,VANDALISM,"MALICIOUS MISCHIEF, VANDALISM OF VEHICLES"
643,Monarch,"101 6th St, San Francisco",37.781,-122.408,WARRANTS,POST RELEASE COMMUNITY SUPERVISION
644,Monarch,"101 6th St, San Francisco",37.781,-122.408,VEHICLE THEFT,STOLEN AUTOMOBILE
645,Monarch,"101 6th St, San Francisco",37.781,-122.408,VEHICLE THEFT,"AUTO, GRAND THEFT OF"
646,Monarch,"101 6th St, San Francisco",37.781,-122.408,VEHICLE THEFT,STOLEN AUTOMOBILE
647,Monarch,"101 6th St, San Francisco",37.781,-122.408,DISORDERLY CONDUCT,"DISTURBING THE PEACE, FIGHTING"
648,Monarch,"101 6th St, San Francisco",37.781,-122.408,DRUG/NARCOTIC,POSSESSION OF MARIJUANA
649,Monarch,"101 6th St, San Francisco",37.781,-122.408,DRUG/NARCOTIC,POSSESSION OF METH-AMPHETAMINE FOR SALE
650,Monarch,"101 6th St, San Francisco",37.781,-122.408,DRUG/NARCOTIC,LOITERING WHERE NARCOTICS ARE SOLD/USED
651,Monarch,"101 6th St, San Francisco",37.781,-122.408,OTHER OFFENSES,RESISTING ARREST
652,Monarch,"101 6th St, San Francisco",37.781,-122.408,SUSPICIOUS OCC,SUSPICIOUS OCCURRENCE
653,Monarch,"101 6th St, San Francisco",37.781,-122.408,DRUG/NARCOTIC,POSSESSION OF METH-AMPHETAMINE FOR SALE
654,Monarch,"101 6th St, San Francisco",37.781,-122.408,VEHICLE THEFT,STOLEN AUTOMOBILE
655,Monarch,"101 6th St, San Francisco",37.781,-122.408,NON-CRIMINAL,"AIDED CASE, MENTAL DISTURBED"
656,Monarch,"101 6th St, San Francisco",37.781,-122.408,ASSAULT,FALSE IMPRISONMENT
657,Monarch,"101 6th St, San Francisco",37.781,-122.408,SECONDARY CODES,DOMESTIC VIOLENCE
658,Monarch,"101 6th St, San Francisco",37.781,-122.408,WARRANTS,ENROUTE TO OUTSIDE JURISDICTION
659,Monarch,"101 6th St, San Francisco",37.781,-122.408,ASSAULT,BATTERY OF A POLICE OFFICER
660,Monarch,"101 6th St, San Francisco",37.781,-122.408,WARRANTS,ENROUTE TO OUTSIDE JURISDICTION
661,Monarch,"101 6th St, San Francisco",37.781,-122.408,DRUG/NARCOTIC,POSSESSION OF MARIJUANA
662,Monarch,"101 6th St, San Francisco",37.781,-122.408,WEAPON LAWS,POSS OF PROHIBITED WEAPON
663,Monarch,"101 6th St, San Francisco",37.781,-122.408,ASSAULT,BATTERY
664,Monarch,"101 6th St, San Francisco",37.781,-122.408,SUSPICIOUS OCC,SUSPICIOUS ACT TOWARDS FEMALE
665,Monarch,"101 6th St, San Francisco",37.781,-122.408,OTHER OFFENSES,TRAFFIC VIOLATION
666,Monarch,"101 6th St, San Francisco",37.781,-122.408,OTHER OFFENSES,"DRIVERS LICENSE, SUSPENDED OR REVOKED"
667,Monarch,"101 6th St, San Francisco",37.781,-122.408,DRUG/NARCOTIC,POSSESSION OF HEROIN FOR SALES
668,Monarch,"101 6th St, San Francisco",37.781,-122.408,DRUG/NARCOTIC,POSSESSION OF COCAINE
669,Monarch,"101 6th St, San Francisco",37.781,-122.408,DRUG/NARCOTIC,POSSESSION OF METH-AMPHETAMINE
670,Monarch,"101 6th St, San Francisco",37.781,-122.408,OTHER OFFENSES,PROBATION VIOLATION
671,Monarch,"101 6th St, San Francisco",37.781,-122.408,OTHER OFFENSES,POSSESSION OF BURGLARY TOOLS W/PRIORS
672,Monarch,"101 6th St, San Francisco",37.781,-122.408,DRUG/NARCOTIC,TRANSPORTATION OF COCAINE
673,Monarch,"101 6th St, San Francisco",37.781,-122.408,OTHER OFFENSES,"TRAFFIC COLLISION, HIT & RUN, PROPERTY DAMAGE"
674,Monarch,"101 6th St, San Francisco",37.781,-122.408,OTHER OFFENSES,MISCELLANEOUS INVESTIGATION
675,Monarch,"101 6th St, San Francisco",37.781,-122.408,OTHER OFFENSES,TRAFFIC VIOLATION ARREST
676,Monarch,"101 6th St, San Francisco",37.781,-122.408,DRUG/NARCOTIC,POSSESSION OF METH-AMPHETAMINE
677,Monarch,"101 6th St, San Francisco",37.781,-122.408,LARCENY/THEFT,PETTY THEFT FROM A BUILDING
678,Monarch,"101 6th St, San Francisco",37.781,-122.408,DRUG/NARCOTIC,POSSESSION OF METH-AMPHETAMINE FOR SALE
679,Monarch,"101 6th St, San Francisco",37.781,-122.408,DRUG/NARCOTIC,POSSESSION OF CONTROLLED SUBSTANCE
680,Monarch,"101 6th St, San Francisco",37.781,-122.408,DRUG/NARCOTIC,POSSESSION OF NARCOTICS PARAPHERNALIA
681,Monarch,"101 6th St, San Francisco",37.781,-122.408,OTHER OFFENSES,TRAFFIC VIOLATION ARREST
682,Monarch,"101 6th St, San Francisco",37.781,-122.408,ASSAULT,AGGRAVATED ASSAULT WITH A KNIFE
683,Monarch,"101 6th St, San Francisco",37.781,-122.408,OTHER OFFENSES,MISCELLANEOUS INVESTIGATION
684,Monarch,"101 6th St, San Francisco",37.781,-122.408,DISORDERLY CONDUCT,DISTURBING THE PEACE
685,Monarch,"101 6th St, San Francisco",37.781,-122.408,OTHER OFFENSES,RESTRAINING ORDER NOTIFICATION/SERVICE OF RESTRAINING ORDER
686,Monarch,"101 6th St, San Francisco",37.781,-122.408,NON-CRIMINAL,"AIDED CASE, MENTAL DISTURBED"
687,Monarch,"101 6th St, San Francisco",37.781,-122.408,VEHICLE THEFT,STOLEN AUTOMOBILE
688,Monarch,"101 6th St, San Francisco",37.781,-122.408,OTHER OFFENSES,VIOLATION OF RESTRAINING ORDER
689,Monarch,"101 6th St, San Francisco",37.781,-122.408,WARRANTS,ENROUTE TO ADULT AUTHORITY
690,Monarch,"101 6th St, San Francisco",37.781,-122.408,ROBBERY,"ROBBERY, BODILY FORCE"
691,Monarch,"101 6th St, San Francisco",37.781,-122.408,DRUG/NARCOTIC,POSSESSION OF METH-AMPHETAMINE FOR SALE
692,Monarch,"101 6th St, San Francisco",37.781,-122.408,NON-CRIMINAL,SEARCH WARRANT SERVICE
693,Monarch,"101 6th St, San Francisco",37.781,-122.408,DRUG/NARCOTIC,POSSESSION OF MARIJUANA FOR SALES
694,Monarch,"101 6th St, San Francisco",37.781,-122.408,DRUG/NARCOTIC,POSSESSION OF CONTROLLED SUBSTANCE
695,Monarch,"101 6th St, San Francisco",37.781,-122.408,OTHER OFFENSES,PROBATION VIOLATION
696,Monarch,"101 6th St, San Francisco",37.781,-122.408,WARRANTS,WARRANT ARREST
697,Monarch,"101 6th St, San Francisco",37.781,-122.408,ASSAULT,AGGRAVATED ASSAULT WITH BODILY FORCE
698,Monarch,"101 6th St, San Francisco",37.781,-122.408,NON-CRIMINAL,"AIDED CASE, MENTAL DISTURBED"
699,Monarch,"101 6th St, San Francisco",37.781,-122.408,OTHER OFFENSES,FALSE FIRE ALARM
700,Monarch,"101 6th St, San Francisco",37.781,-122.408,DRUG/NARCOTIC,POSSESSION OF METH-AMPHETAMINE FOR SALE
701,Monarch,"101 6th St, San Francisco",37.781,-122.408,OTHER OFFENSES,PROBATION VIOLATION
702,Monarch,"101 6th St, San Francisco",37.781,-122.408,OTHER OFFENSES,"DRIVERS LICENSE, SUSPENDED OR REVOKED"
703,Monarch,"101 6th St, San Francisco",37.781,-122.408,DRUG/NARCOTIC,POSSESSION OF HEROIN
704,Monarch,"101 6th St, San Francisco",37.781,-122.408,DRUG/NARCOTIC,POSSESSION OF METH-AMPHETAMINE
705,Monarch,"101 6th St, San Francisco",37.781,-122.408,DRUG/NARCOTIC,POSSESSION OF NARCOTICS PARAPHERNALIA
706,Monarch,"101 6th St, San Francisco",37.781,-122.408,OTHER OFFENSES,FALSE REPORT OF CRIME
707,Monarch,"101 6th St, San Francisco",37.781,-122.408,SUSPICIOUS OCC,INVESTIGATIVE DETENTION
708,Monarch,"101 6th St, San Francisco",37.781,-122.408,NON-CRIMINAL,"AIDED CASE, MENTAL DISTURBED"
709,Monarch,"101 6th St, San Francisco",37.781,-122.408,ASSAULT,BATTERY
710,Monarch,"101 6th St, San Francisco",37.781,-122.408,DRUG/NARCOTIC,POSSESSION OF METH-AMPHETAMINE
711,Monarch,"101 6th St, San Francisco",37.781,-122.408,DISORDERLY CONDUCT,COMMITTING PUBLIC NUISANCE
712,Monarch,"101 6th St, San Francisco",37.781,-122.408,TRESPASS,LODGING WITHOUT PERMISSION
713,Monarch,"101 6th St, San Francisco",37.781,-122.408,NON-CRIMINAL,"AIDED CASE, MENTAL DISTURBED"
714,Monarch,"101 6th St, San Francisco",37.781,-122.408,NON-CRIMINAL,AIDED CASE
715,Monarch,"101 6th St, San Francisco",37.781,-122.408,SUSPICIOUS OCC,SUSPICIOUS OCCURRENCE
716,Monarch,"101 6th St, San Francisco",37.781,-122.408,NON-CRIMINAL,"STAY AWAY OR COURT ORDER, NON-DV RELATED"
717,Monarch,"101 6th St, San Francisco",37.781,-122.408,SUSPICIOUS OCC,SUSPICIOUS OCCURRENCE
718,Monarch,"101 6th St, San Francisco",37.781,-122.408,ASSAULT,INFLICT INJURY ON COHABITEE
719,Monarch,"101 6th St, San Francisco",37.781,-122.408,SECONDARY CODES,DOMESTIC VIOLENCE
720,Monarch,"101 6th St, San Francisco",37.781,-122.408,WEAPON LAWS,POSS OF TEAR GAS WEAPON
721,Monarch,"101 6th St, San Francisco",37.781,-122.408,WARRANTS,WARRANT ARREST
722,Monarch,"101 6th St, San Francisco",37.781,-122.408,DRUG/NARCOTIC,POSSESSION OF METH-AMPHETAMINE
723,Monarch,"101 6th St, San Francisco",37.781,-122.408,DRUG/NARCOTIC,POSSESSION OF CONTROLLED SUBSTANCE FOR SALE
724,Monarch,"101 6th St, San Francisco",37.781,-122.408,WARRANTS,WARRANT ARREST
725,Monarch,"101 6th St, San Francisco",37.781,-122.408,NON-CRIMINAL,SEARCH WARRANT SERVICE
726,Monarch,"101 6th St, San Francisco",37.781,-122.408,NON-CRIMINAL,"AIDED CASE, MENTAL DISTURBED"
727,Monarch,"101 6th St, San Francisco",37.781,-122.408,DRUG/NARCOTIC,POSSESSION OF METH-AMPHETAMINE FOR SALE
728,Monarch,"101 6th St, San Francisco",37.781,-122.408,OTHER OFFENSES,RESISTING ARREST
729,Monarch,"101 6th St, San Francisco",37.781,-122.408,VANDALISM,"MALICIOUS MISCHIEF, VANDALISM OF VEHICLES"
730,Monarch,"101 6th St, San Francisco",37.781,-122.408,NON-CRIMINAL,LOST PROPERTY
731,Monarch,"101 6th St, San Francisco",37.781,-122.408,SUSPICIOUS OCC,SUSPICIOUS OCCURRENCE
732,Monarch,"101 6th St, San Francisco",37.781,-122.408,NON-CRIMINAL,"AIDED CASE, MENTAL DISTURBED"
733,Monarch,"101 6th St, San Francisco",37.781,-122.408,OTHER OFFENSES,EVADING A POLICE OFFICER RECKLESSLY
734,Monarch,"101 6th St, San Francisco",37.781,-122.408,WEAPON LAWS,CARRYING A CONCEALED WEAPON
735,Monarch,"101 6th St, San Francisco",37.781,-122.408,LIQUOR LAWS,CONSUMING ALCOHOL IN PUBLIC VIEW
736,Monarch,"101 6th St, San Francisco",37.781,-122.408,DRUG/NARCOTIC,POSSESSION OF MARIJUANA
737,Monarch,"101 6th St, San Francisco",37.781,-122.408,DRUG/NARCOTIC,POSSESSION OF METH-AMPHETAMINE
738,Monarch,"101 6th St, San Francisco",37.781,-122.408,WARRANTS,ENROUTE TO OUTSIDE JURISDICTION
739,Monarch,"101 6th St, San Francisco",37.781,-122.408,DRUG/NARCOTIC,POSSESSION OF BASE/ROCK COCAINE FOR SALE
740,Monarch,"101 6th St, San Francisco",37.781,-122.408,DRUG/NARCOTIC,SALE OF BASE/ROCK COCAINE
741,Monarch,"101 6th St, San Francisco",37.781,-122.408,NON-CRIMINAL,"AIDED CASE, MENTAL DISTURBED"
742,Monarch,"101 6th St, San Francisco",37.781,-122.408,OTHER OFFENSES,"DRIVERS LICENSE, SUSPENDED OR REVOKED"
743,Monarch,"101 6th St, San Francisco",37.781,-122.408,OTHER OFFENSES,"FRAUDULENT GAME OR TRICK, OBTAINING MONEY OR PROPERTY"
744,Monarch,"101 6th St, San Francisco",37.781,-122.408,SUSPICIOUS OCC,SUSPICIOUS OCCURRENCE
745,Monarch,"101 6th St, San Francisco",37.781,-122.408,LARCENY/THEFT,GRAND THEFT BICYCLE
746,Monarch,"101 6th St, San Francisco",37.781,-122.408,DRUG/NARCOTIC,POSSESSION OF MARIJUANA
747,Monarch,"101 6th St, San Francisco",37.781,-122.408,DRUG/NARCOTIC,POSSESSION OF METH-AMPHETAMINE
748,Monarch,"101 6th St, San Francisco",37.781,-122.408,DRUG/NARCOTIC,POSSESSION OF METH-AMPHETAMINE
749,Monarch,"101 6th St, San Francisco",37.781,-122.408,DRUG/NARCOTIC,POSSESSION OF NARCOTICS PARAPHERNALIA
750,Monarch,"101 6th St, San Francisco",37.781,-122.408,WARRANTS,WARRANT ARREST
751,Monarch,"101 6th St, San Francisco",37.781,-122.408,LARCENY/THEFT,GRAND THEFT FROM PERSON
752,Monarch,"101 6th St, San Francisco",37.781,-122.408,ASSAULT,BATTERY
753,Monarch,"101 6th St, San Francisco",37.781,-122.408,ASSAULT,AGGRAVATED ASSAULT WITH A DEADLY WEAPON
754,Monarch,"101 6th St, San Francisco",37.781,-122.408,WARRANTS,WARRANT ARREST
755,Monarch,"101 6th St, San Francisco",37.781,-122.408,OTHER OFFENSES,"DRIVERS LICENSE, SUSPENDED OR REVOKED"
756,Monarch,"101 6th St, San Francisco",37.781,-122.408,DRUG/NARCOTIC,POSSESSION OF NARCOTICS PARAPHERNALIA
757,Monarch,"101 6th St, San Francisco",37.781,-122.408,OTHER OFFENSES,TRAFFIC VIOLATION ARREST
758,Monarch,"101 6th St, San Francisco",37.781,-122.408,DRIVING UNDER THE INFLUENCE,DRIVING WHILE UNDER THE INFLUENCE OF DRUGS
759,Monarch,"101 6th St, San Francisco",37.781,-122.408,DRUG/NARCOTIC,POSSESSION OF BASE/ROCK COCAINE
760,Monarch,"101 6th St, San Francisco",37.781,-122.408,DRUG/NARCOTIC,SALE OF BASE/ROCK COCAINE
761,Monarch,"101 6th St, San Francisco",37.781,-122.408,OTHER OFFENSES,CONSPIRACY
762,Monarch,"101 6th St, San Francisco",37.781,-122.408,DRUG/NARCOTIC,POSSESSION OF MARIJUANA
763,Monarch,"101 6th St, San Francisco",37.781,-122.408,LARCENY/THEFT,PETTY THEFT FROM A BUILDING
764,Monarch,"101 6th St, San Francisco",37.781,-122.408,FRAUD,"CREDIT CARD, THEFT BY USE OF"
765,Monarch,"101 6th St, San Francisco",37.781,-122.408,LARCENY/THEFT,GRAND THEFT PICKPOCKET
766,Monarch,"101 6th St, San Francisco",37.781,-122.408,FRAUD,"CREDIT CARD, THEFT BY USE OF"
767,Monarch,"101 6th St, San Francisco",37.781,-122.408,ASSAULT,BATTERY
768,Monarch,"101 6th St, San Francisco",37.781,-122.408,OTHER OFFENSES,"DRIVERS LICENSE, SUSPENDED OR REVOKED"
769,Monarch,"101 6th St, San Francisco",37.781,-122.408,STOLEN PROPERTY,"STOLEN PROPERTY, POSSESSION WITH KNOWLEDGE, RECEIVING"
770,Monarch,"101 6th St, San Francisco",37.781,-122.408,OTHER OFFENSES,PROBATION VIOLATION
771,Monarch,"101 6th St, San Francisco",37.781,-122.408,OTHER OFFENSES,TRAFFIC VIOLATION ARREST
772,Monarch,"101 6th St, San Francisco",37.781,-122.408,OTHER OFFENSES,TRAFFIC VIOLATION
773,Monarch,"101 6th St, San Francisco",37.781,-122.408,OTHER OFFENSES,MISCELLANEOUS INVESTIGATION
774,Monarch,"101 6th St, San Francisco",37.781,-122.408,LARCENY/THEFT,GRAND THEFT FROM A BUILDING
775,Monarch,"101 6th St, San Francisco",37.781,-122.408,LARCENY/THEFT,GRAND THEFT FROM PERSON
776,Monarch,"101 6th St, San Francisco",37.781,-122.408,TRESPASS,TRESPASSING
777,Monarch,"101 6th St, San Francisco",37.781,-122.408,"SEX OFFENSES, FORCIBLE",SEXUAL BATTERY
778,Monarch,"101 6th St, San Francisco",37.781,-122.408,"SEX OFFENSES, FORCIBLE","ORAL COPULATION, UNLAWFUL (ADULT VICTIM)"
779,Monarch,"101 6th St, San Francisco",37.781,-122.408,NON-CRIMINAL,LOST PROPERTY
780,Monarch,"101 6th St, San Francisco",37.781,-122.408,SUSPICIOUS OCC,INVESTIGATIVE DETENTION
781,Monarch,"101 6th St, San Francisco",37.781,-122.408,VANDALISM,"MALICIOUS MISCHIEF, BREAKING WINDOWS"
782,Monarch,"101 6th St, San Francisco",37.781,-122.408,OTHER OFFENSES,PLACING TRASH ON THE STREET
783,Monarch,"101 6th St, San Francisco",37.781,-122.408,WARRANTS,ENROUTE TO OUTSIDE JURISDICTION
784,Monarch,"101 6th St, San Francisco",37.781,-122.408,NON-CRIMINAL,"AIDED CASE, MENTAL DISTURBED"
785,Monarch,"101 6th St, San Francisco",37.781,-122.408,NON-CRIMINAL,"DEATH REPORT, CAUSE UNKNOWN"
786,Monarch,"101 6th St, San Francisco",37.781,-122.408,ASSAULT,BATTERY
787,Monarch,"101 6th St, San Francisco",37.781,-122.408,SUSPICIOUS OCC,SUSPICIOUS OCCURRENCE
788,Monarch,"101 6th St, San Francisco",37.781,-122.408,NON-CRIMINAL,"AIDED CASE, MENTAL DISTURBED"
789,Monarch,"101 6th St, San Francisco",37.781,-122.408,MISSING PERSON,FOUND PERSON
790,Monarch,"101 6th St, San Francisco",37.781,-122.408,WARRANTS,WARRANT ARREST
791,Monarch,"101 6th St, San Francisco",37.781,-122.408,NON-CRIMINAL,"AIDED CASE, MENTAL DISTURBED"
792,Monarch,"101 6th St, San Francisco",37.781,-122.408,DRUG/NARCOTIC,POSSESSION OF NARCOTICS PARAPHERNALIA
793,Monarch,"101 6th St, San Francisco",37.781,-122.408,MISSING PERSON,FOUND PERSON
794,Monarch,"101 6th St, San Francisco",37.781,-122.408,SUSPICIOUS OCC,INVESTIGATIVE DETENTION
795,Monarch,"101 6th St, San Francisco",37.781,-122.408,WARRANTS,WARRANT ARREST
796,Monarch,"101 6th St, San Francisco",37.781,-122.408,WARRANTS,ENROUTE TO OUTSIDE JURISDICTION
797,Monarch,"101 6th St, San Francisco",37.781,-122.408,OTHER OFFENSES,TRAFFIC VIOLATION ARREST
798,Monarch,"101 6th St, San Francisco",37.781,-122.408,LARCENY/THEFT,GRAND THEFT FROM PERSON
799,Monarch,"101 6th St, San Francisco",37.781,-122.408,DRUG/NARCOTIC,POSSESSION OF MARIJUANA
800,Monarch,"101 6th St, San Francisco",37.781,-122.408,WARRANTS,ENROUTE TO OUTSIDE JURISDICTION
801,Monarch,"101 6th St, San Francisco",37.781,-122.408,WARRANTS,WARRANT ARREST
802,Monarch,"101 6th St, San Francisco",37.781,-122.408,DRUG/NARCOTIC,POSSESSION OF MARIJUANA
803,Monarch,"101 6th St, San Francisco",37.781,-122.408,DRUG/NARCOTIC,POSSESSION OF METH-AMPHETAMINE
804,Monarch,"101 6th St, San Francisco",37.781,-122.408,DRUG/NARCOTIC,SALE OF METH-AMPHETAMINE
805,Monarch,"101 6th St, San Francisco",37.781,-122.408,STOLEN PROPERTY,"STOLEN PROPERTY, POSSESSION WITH KNOWLEDGE, RECEIVING"
806,Monarch,"101 6th St, San Francisco",37.781,-122.408,OTHER OFFENSES,RESISTING ARREST
807,Monarch,"101 6th St, San Francisco",37.781,-122.408,NON-CRIMINAL,"STAY AWAY OR COURT ORDER, NON-DV RELATED"
808,Monarch,"101 6th St, San Francisco",37.781,-122.408,WARRANTS,WARRANT ARREST
809,Monarch,"101 6th St, San Francisco",37.781,-122.408,DRUG/NARCOTIC,POSSESSION OF NARCOTICS PARAPHERNALIA
810,Monarch,"101 6th St, San Francisco",37.781,-122.408,ASSAULT,AGGRAVATED ASSAULT WITH A DEADLY WEAPON
811,Monarch,"101 6th St, San Francisco",37.781,-122.408,NON-CRIMINAL,"AIDED CASE, MENTAL DISTURBED"
812,Monarch,"101 6th St, San Francisco",37.781,-122.408,ASSAULT,AGGRAVATED ASSAULT WITH A DEADLY WEAPON
813,Monarch,"101 6th St, San Francisco",37.781,-122.408,WARRANTS,WARRANT ARREST
814,Monarch,"101 6th St, San Francisco",37.781,-122.408,DRUG/NARCOTIC,POSSESSION OF COCAINE FOR SALES
815,Monarch,"101 6th St, San Francisco",37.781,-122.408,WARRANTS,WARRANT ARREST
816,Monarch,"101 6th St, San Francisco",37.781,-122.408,TRESPASS,TRESPASSING
817,Monarch,"101 6th St, San Francisco",37.781,-122.408,DRUG/NARCOTIC,POSSESSION OF METH-AMPHETAMINE
818,Monarch,"101 6th St, San Francisco",37.781,-122.408,DRUG/NARCOTIC,POSSESSION OF METH-AMPHETAMINE
819,Monarch,"101 6th St, San Francisco",37.781,-122.408,WARRANTS,WARRANT ARREST
820,Monarch,"101 6th St, San Francisco",37.781,-122.408,NON-CRIMINAL,"CIVIL SIDEWALKS, WARNING"
821,Monarch,"101 6th St, San Francisco",37.781,-122.408,DRUG/NARCOTIC,POSSESSION OF NARCOTICS PARAPHERNALIA
822,Monarch,"101 6th St, San Francisco",37.781,-122.408,WARRANTS,WARRANT ARREST
823,Monarch,"101 6th St, San Francisco",37.781,-122.408,DRUG/NARCOTIC,POSSESSION OF HEROIN
824,Monarch,"101 6th St, San Francisco",37.781,-122.408,DRUG/NARCOTIC,POSSESSION OF COCAINE
825,Monarch,"101 6th St, San Francisco",37.781,-122.408,DRUG/NARCOTIC,SALE OF METH-AMPHETAMINE
826,Monarch,"101 6th St, San Francisco",37.781,-122.408,DRUG/NARCOTIC,POSSESSION OF NARCOTICS PARAPHERNALIA
827,Monarch,"101 6th St, San Francisco",37.781,-122.408,OTHER OFFENSES,PROBATION VIOLATION
828,Monarch,"101 6th St, San Francisco",37.781,-122.408,WARRANTS,WARRANT ARREST
829,Monarch,"101 6th St, San Francisco",37.781,-122.408,ASSAULT,FALSE IMPRISONMENT
830,Monarch,"101 6th St, San Francisco",37.781,-122.408,ASSAULT,INFLICT INJURY ON COHABITEE
831,Monarch,"101 6th St, San Francisco",37.781,-122.408,SECONDARY CODES,DOMESTIC VIOLENCE
832,Monarch,"101 6th St, San Francisco",37.781,-122.408,WARRANTS,WARRANT ARREST
833,Monarch,"101 6th St, San Francisco",37.781,-122.408,ASSAULT,"AGGRAVATED ASSAULT OF POLICE OFFICER,BODILY FORCE"
834,Monarch,"101 6th St, San Francisco",37.781,-122.408,DRUG/NARCOTIC,POSSESSION OF METH-AMPHETAMINE FOR SALE
835,Monarch,"101 6th St, San Francisco",37.781,-122.408,WARRANTS,WARRANT ARREST
836,Monarch,"101 6th St, San Francisco",37.781,-122.408,OTHER OFFENSES,PROBATION VIOLATION
837,Monarch,"101 6th St, San Francisco",37.781,-122.408,OTHER OFFENSES,RESISTING ARREST
838,Monarch,"101 6th St, San Francisco",37.781,-122.408,DRUG/NARCOTIC,POSSESSION OF NARCOTICS PARAPHERNALIA
839,Monarch,"101 6th St, San Francisco",37.781,-122.408,OTHER OFFENSES,TRAFFIC VIOLATION ARREST
840,Monarch,"101 6th St, San Francisco",37.781,-122.408,NON-CRIMINAL,"AIDED CASE, MENTAL DISTURBED"
841,Monarch,"101 6th St, San Francisco",37.781,-122.408,SUSPICIOUS OCC,SUSPICIOUS OCCURRENCE
842,Monarch,"101 6th St, San Francisco",37.781,-122.408,DRUG/NARCOTIC,POSSESSION OF BASE/ROCK COCAINE FOR SALE
843,Monarch,"101 6th St, San Francisco",37.781,-122.408,DRUG/NARCOTIC,POSSESSION OF METH-AMPHETAMINE FOR SALE
844,Monarch,"101 6th St, San Francisco",37.781,-122.408,OTHER OFFENSES,PROBATION VIOLATION
845,Monarch,"101 6th St, San Francisco",37.781,-122.408,LARCENY/THEFT,THEFT FROM MERCHANT OR LIBRARY
846,Monarch,"101 6th St, San Francisco",37.781,-122.408,DRUG/NARCOTIC,POSSESSION OF NARCOTICS PARAPHERNALIA
847,Monarch,"101 6th St, San Francisco",37.781,-122.408,NON-CRIMINAL,LOST PROPERTY
848,Monarch,"101 6th St, San Francisco",37.781,-122.408,DRUG/NARCOTIC,POSSESSION OF BASE/ROCK COCAINE
849,Monarch,"101 6th St, San Francisco",37.781,-122.408,DRUG/NARCOTIC,POSSESSION OF METH-AMPHETAMINE FOR SALE
850,Monarch,"101 6th St, San Francisco",37.781,-122.408,DRUG/NARCOTIC,POSSESSION OF NARCOTICS PARAPHERNALIA
851,Monarch,"101 6th St, San Francisco",37.781,-122.408,DRUG/NARCOTIC,POSSESSION OF METH-AMPHETAMINE
852,Monarch,"101 6th St, San Francisco",37.781,-122.408,DRUG/NARCOTIC,POSSESSION OF NARCOTICS PARAPHERNALIA
853,Monarch,"101 6th St, San Francisco",37.781,-122.408,OTHER OFFENSES,RESISTING ARREST
854,Monarch,"101 6th St, San Francisco",37.781,-122.408,WARRANTS,WARRANT ARREST
855,Monarch,"101 6th St, San Francisco",37.781,-122.408,SUSPICIOUS OCC,SUSPICIOUS OCCURRENCE
856,Monarch,"101 6th St, San Francisco",37.781,-122.408,WARRANTS,ENROUTE TO OUTSIDE JURISDICTION
857,Monarch,"101 6th St, San Francisco",37.781,-122.408,OTHER OFFENSES,TRAFFIC VIOLATION ARREST
858,Monarch,"101 6th St, San Francisco",37.781,-122.408,OTHER OFFENSES,"DRIVERS LICENSE, SUSPENDED OR REVOKED"
859,Monarch,"101 6th St, San Francisco",37.781,-122.408,ASSAULT,BATTERY
860,Monarch,"101 6th St, San Francisco",37.781,-122.408,DISORDERLY CONDUCT,"DISTURBING THE PEACE, FIGHTING"
861,Monarch,"101 6th St, San Francisco",37.781,-122.408,SUSPICIOUS OCC,INVESTIGATIVE DETENTION
862,Monarch,"101 6th St, San Francisco",37.781,-122.408,SUSPICIOUS OCC,INVESTIGATIVE DETENTION
863,Monarch,"101 6th St, San Francisco",37.781,-122.408,DRUG/NARCOTIC,POSSESSION OF NARCOTICS PARAPHERNALIA
864,Monarch,"101 6th St, San Francisco",37.781,-122.408,OTHER OFFENSES,TRAFFIC VIOLATION ARREST
865,Monarch,"101 6th St, San Francisco",37.781,-122.408,OTHER OFFENSES,TRAFFIC VIOLATION
866,Monarch,"101 6th St, San Francisco",37.781,-122.408,OTHER OFFENSES,CRUELTY TO ANIMALS
867,Monarch,"101 6th St, San Francisco",37.781,-122.408,LARCENY/THEFT,PETTY THEFT FROM A BUILDING
868,Monarch,"101 6th St, San Francisco",37.781,-122.408,WEAPON LAWS,POSS OF FIREARM BY CONVICTED FELON/ADDICT/ALIEN
869,Monarch,"101 6th St, San Francisco",37.781,-122.408,WEAPON LAWS,POSS OF LOADED FIREARM
870,Monarch,"101 6th St, San Francisco",37.781,-122.408,LIQUOR LAWS,CONSUMING ALCOHOL IN PUBLIC VIEW
871,Monarch,"101 6th St, San Francisco",37.781,-122.408,WARRANTS,ENROUTE TO OUTSIDE JURISDICTION
872,Monarch,"101 6th St, San Francisco",37.781,-122.408,DRUG/NARCOTIC,POSSESSION OF NARCOTICS PARAPHERNALIA
873,Monarch,"101 6th St, San Francisco",37.781,-122.408,WARRANTS,ENROUTE TO OUTSIDE JURISDICTION
874,Monarch,"101 6th St, San Francisco",37.781,-122.408,OTHER OFFENSES,TRAFFIC VIOLATION ARREST
875,Monarch,"101 6th St, San Francisco",37.781,-122.408,SUSPICIOUS OCC,SUSPICIOUS OCCURRENCE
876,Monarch,"101 6th St, San Francisco",37.781,-122.408,NON-CRIMINAL,"STAY AWAY OR COURT ORDER, NON-DV RELATED"
877,Monarch,"101 6th St, San Francisco",37.781,-122.408,DRUG/NARCOTIC,POSSESSION OF METH-AMPHETAMINE FOR SALE
878,Monarch,"101 6th St, San Francisco",37.781,-122.408,OTHER OFFENSES,CONSPIRACY
879,Monarch,"101 6th St, San Francisco",37.781,-122.408,ASSAULT,AGGRAVATED ASSAULT WITH A DEADLY WEAPON
880,Monarch,"101 6th St, San Francisco",37.781,-122.408,WARRANTS,ENROUTE TO OUTSIDE JURISDICTION
881,Monarch,"101 6th St, San Francisco",37.781,-122.408,WARRANTS,ENROUTE TO U.S. MARSHALL
882,Monarch,"101 6th St, San Francisco",37.781,-122.408,LOITERING,LOITERING
883,Monarch,"101 6th St, San Francisco",37.781,-122.408,TRESPASS,LODGING WITHOUT PERMISSION
884,Monarch,"101 6th St, San Francisco",37.781,-122.408,ASSAULT,"BATTERY, FORMER SPOUSE OR DATING RELATIONSHIP"
885,Monarch,"101 6th St, San Francisco",37.781,-122.408,ASSAULT,BATTERY
886,Monarch,"101 6th St, San Francisco",37.781,-122.408,DRUG/NARCOTIC,POSSESSION OF BASE/ROCK COCAINE FOR SALE
887,Monarch,"101 6th St, San Francisco",37.781,-122.408,ASSAULT,THREATS AGAINST LIFE
888,Monarch,"101 6th St, San Francisco",37.781,-122.408,ASSAULT,BATTERY
889,Monarch,"101 6th St, San Francisco",37.781,-122.408,LARCENY/THEFT,GRAND THEFT FROM LOCKED AUTO
890,Monarch,"101 6th St, San Francisco",37.781,-122.408,LARCENY/THEFT,GRAND THEFT FROM LOCKED AUTO
891,Monarch,"101 6th St, San Francisco",37.781,-122.408,LARCENY/THEFT,GRAND THEFT FROM LOCKED AUTO
892,Monarch,"101 6th St, San Francisco",37.781,-122.408,LARCENY/THEFT,GRAND THEFT FROM LOCKED AUTO
893,Monarch,"101 6th St, San Francisco",37.781,-122.408,LARCENY/THEFT,PETTY THEFT OF PROPERTY
894,Monarch,"101 6th St, San Francisco",37.781,-122.408,VANDALISM,"MALICIOUS MISCHIEF, VANDALISM"
895,Monarch,"101 6th St, San Francisco",37.781,-122.408,WEAPON LAWS,CARRYING A CONCEALED WEAPON
896,Monarch,"101 6th St, San Francisco",37.781,-122.408,DRUG/NARCOTIC,TRANSPORTATION OF METH-AMPHETAMINE
897,Monarch,"101 6th St, San Francisco",37.781,-122.408,WARRANTS,ENROUTE TO OUTSIDE JURISDICTION
898,Monarch,"101 6th St, San Francisco",37.781,-122.408,LARCENY/THEFT,GRAND THEFT OF PROPERTY
899,Monarch,"101 6th St, San Francisco",37.781,-122.408,LARCENY/THEFT,GRAND THEFT OF PROPERTY
900,Monarch,"101 6th St, San Francisco",37.781,-122.408,LARCENY/THEFT,GRAND THEFT OF PROPERTY
901,Monarch,"101 6th St, San Francisco",37.781,-122.408,LARCENY/THEFT,PETTY THEFT OF PROPERTY
902,Monarch,"101 6th St, San Francisco",37.781,-122.408,LARCENY/THEFT,GRAND THEFT FROM LOCKED AUTO
903,Monarch,"101 6th St, San Francisco",37.781,-122.408,SUSPICIOUS OCC,INVESTIGATIVE DETENTION
904,Monarch,"101 6th St, San Francisco",37.781,-122.408,DRUG/NARCOTIC,POSSESSION OF NARCOTICS PARAPHERNALIA
905,Monarch,"101 6th St, San Francisco",37.781,-122.408,ASSAULT,FALSE IMPRISONMENT
906,Monarch,"101 6th St, San Francisco",37.781,-122.408,STOLEN PROPERTY,"STOLEN CELLULAR PHONE, NON-CLONED, POSSESSION"
907,Monarch,"101 6th St, San Francisco",37.781,-122.408,OTHER OFFENSES,INDECENT EXPOSURE
908,Monarch,"101 6th St, San Francisco",37.781,-122.408,ASSAULT,THREATS AGAINST LIFE
909,Monarch,"101 6th St, San Francisco",37.781,-122.408,KIDNAPPING,"KIDNAPPING, ADULT VICTIM"
910,Monarch,"101 6th St, San Francisco",37.781,-122.408,ROBBERY,ROBBERY OF A RESIDENCE WITH BODILY FORCE
911,Monarch,"101 6th St, San Francisco",37.781,-122.408,SUSPICIOUS OCC,SUSPICIOUS ACT TOWARDS FEMALE
912,Monarch,"101 6th St, San Francisco",37.781,-122.408,LARCENY/THEFT,GRAND THEFT FROM PERSON
913,Monarch,"101 6th St, San Francisco",37.781,-122.408,BURGLARY,"BURGLARY, HOT PROWL, UNLAWFUL ENTRY"
914,Monarch,"101 6th St, San Francisco",37.781,-122.408,DRUG/NARCOTIC,POSSESSION OF NARCOTICS PARAPHERNALIA
915,Monarch,"101 6th St, San Francisco",37.781,-122.408,LARCENY/THEFT,GRAND THEFT PICKPOCKET
916,Monarch,"101 6th St, San Francisco",37.781,-122.408,NON-CRIMINAL,"AIDED CASE, MENTAL DISTURBED"
917,Monarch,"101 6th St, San Francisco",37.781,-122.408,VANDALISM,"MALICIOUS MISCHIEF, VANDALISM OF VEHICLES"
918,Monarch,"101 6th St, San Francisco",37.781,-122.408,DRUG/NARCOTIC,POSSESSION OF METH-AMPHETAMINE FOR SALE
919,Monarch,"101 6th St, San Francisco",37.781,-122.408,FRAUD,"CREDIT CARD, THEFT BY USE OF"
920,Monarch,"101 6th St, San Francisco",37.781,-122.408,LARCENY/THEFT,"LOST PROPERTY, PETTY THEFT"
921,Monarch,"101 6th St, San Francisco",37.781,-122.408,DRUG/NARCOTIC,POSSESSION OF METH-AMPHETAMINE FOR SALE
922,Monarch,"101 6th St, San Francisco",37.781,-122.408,NON-CRIMINAL,"AIDED CASE, MENTAL DISTURBED"
923,Monarch,"101 6th St, San Francisco",37.781,-122.408,VANDALISM,"MALICIOUS MISCHIEF, VANDALISM"
924,Monarch,"101 6th St, San Francisco",37.781,-122.408,NON-CRIMINAL,FOUND PROPERTY
925,Monarch,"101 6th St, San Francisco",37.781,-122.408,NON-CRIMINAL,LOST PROPERTY
926,City Nights,"715 Harrison St, San Francisco",37.782,-122.398,MISSING PERSON,MISSING ADULT
927,City Nights,"715 Harrison St, San Francisco",37.782,-122.398,MISSING PERSON,FOUND PERSON
928,City Nights,"715 Harrison St, San Francisco",37.782,-122.398,DRUNKENNESS,UNDER INFLUENCE OF ALCOHOL IN A PUBLIC PLACE
929,City Nights,"715 Harrison St, San Francisco",37.782,-122.398,LARCENY/THEFT,GRAND THEFT FROM LOCKED AUTO
930,City Nights,"715 Harrison St, San Francisco",37.782,-122.398,NON-CRIMINAL,LOST PROPERTY
931,City Nights,"715 Harrison St, San Francisco",37.782,-122.398,BURGLARY,"BURGLARY, VEHICLE (ARREST MADE)"
932,City Nights,"715 Harrison St, San Francisco",37.782,-122.398,STOLEN PROPERTY,"STOLEN PROPERTY, POSSESSION WITH KNOWLEDGE, RECEIVING"
933,City Nights,"715 Harrison St, San Francisco",37.782,-122.398,OTHER OFFENSES,RESISTING ARREST
934,City Nights,"715 Harrison St, San Francisco",37.782,-122.398,OTHER OFFENSES,"DRIVERS LICENSE, SUSPENDED OR REVOKED"
935,City Nights,"715 Harrison St, San Francisco",37.782,-122.398,LARCENY/THEFT,PETTY THEFT FROM LOCKED AUTO
936,City Nights,"715 Harrison St, San Francisco",37.782,-122.398,FRAUD,"CREDIT CARD, THEFT BY USE OF"
937,City Nights,"715 Harrison St, San Francisco",37.782,-122.398,BURGLARY,"BURGLARY, VEHICLE (ARREST MADE)"
938,City Nights,"715 Harrison St, San Francisco",37.782,-122.398,OTHER OFFENSES,POSSESSION OF BURGLARY TOOLS
939,City Nights,"715 Harrison St, San Francisco",37.782,-122.398,LARCENY/THEFT,PETTY THEFT FROM LOCKED AUTO
940,City Nights,"715 Harrison St, San Francisco",37.782,-122.398,LARCENY/THEFT,PETTY THEFT FROM LOCKED AUTO
941,City Nights,"715 Harrison St, San Francisco",37.782,-122.398,LARCENY/THEFT,GRAND THEFT PICKPOCKET
942,City Nights,"715 Harrison St, San Francisco",37.782,-122.398,LARCENY/THEFT,PETTY THEFT FROM LOCKED AUTO
943,City Nights,"715 Harrison St, San Francisco",37.782,-122.398,VANDALISM,"MALICIOUS MISCHIEF, VANDALISM"
944,City Nights,"715 Harrison St, San Francisco",37.782,-122.398,NON-CRIMINAL,AIDED CASE
945,City Nights,"715 Harrison St, San Francisco",37.782,-122.398,VEHICLE THEFT,STOLEN AUTOMOBILE
946,City Nights,"715 Harrison St, San Francisco",37.782,-122.398,NON-CRIMINAL,LOST PROPERTY
947,City Nights,"715 Harrison St, San Francisco",37.782,-122.398,LARCENY/THEFT,PETTY THEFT FROM LOCKED AUTO
948,City Nights,"715 Harrison St, San Francisco",37.782,-122.398,LARCENY/THEFT,GRAND THEFT FROM PERSON
949,City Nights,"715 Harrison St, San Francisco",37.782,-122.398,OTHER OFFENSES,PROBATION VIOLATION
950,City Nights,"715 Harrison St, San Francisco",37.782,-122.398,LARCENY/THEFT,GRAND THEFT FROM PERSON
951,City Nights,"715 Harrison St, San Francisco",37.782,-122.398,VEHICLE THEFT,STOLEN AUTOMOBILE
952,City Nights,"715 Harrison St, San Francisco",37.782,-122.398,NON-CRIMINAL,"AIDED CASE, MENTAL DISTURBED"
953,City Nights,"715 Harrison St, San Francisco",37.782,-122.398,TRESPASS,TRESPASSING
954,City Nights,"715 Harrison St, San Francisco",37.782,-122.398,LARCENY/THEFT,PETTY THEFT FROM LOCKED AUTO
955,City Nights,"715 Harrison St, San Francisco",37.782,-122.398,LARCENY/THEFT,GRAND THEFT FROM LOCKED AUTO
956,City Nights,"715 Harrison St, San Francisco",37.782,-122.398,LARCENY/THEFT,PETTY THEFT FROM LOCKED AUTO
957,City Nights,"715 Harrison St, San Francisco",37.782,-122.398,VEHICLE THEFT,STOLEN AUTOMOBILE
958,City Nights,"715 Harrison St, San Francisco",37.782,-122.398,WEAPON LAWS,POSS OF LOADED FIREARM
959,City Nights,"715 Harrison St, San Francisco",37.782,-122.398,WEAPON LAWS,"FIREARM, LOADED, IN VEHICLE, POSSESSION OR USE"
960,City Nights,"715 Harrison St, San Francisco",37.782,-122.398,VEHICLE THEFT,STOLEN AND RECOVERED VEHICLE
961,City Nights,"715 Harrison St, San Francisco",37.782,-122.398,VEHICLE THEFT,STOLEN AUTOMOBILE
962,City Nights,"715 Harrison St, San Francisco",37.782,-122.398,OTHER OFFENSES,"DRIVERS LICENSE, SUSPENDED OR REVOKED"
963,City Nights,"715 Harrison St, San Francisco",37.782,-122.398,VANDALISM,"MALICIOUS MISCHIEF, VANDALISM OF VEHICLES"
964,City Nights,"715 Harrison St, San Francisco",37.782,-122.398,NON-CRIMINAL,AIDED CASE
965,City Nights,"715 Harrison St, San Francisco",37.782,-122.398,VEHICLE THEFT,STOLEN AND RECOVERED VEHICLE
966,City Nights,"715 Harrison St, San Francisco",37.782,-122.398,VEHICLE THEFT,STOLEN AUTOMOBILE
967,City Nights,"715 Harrison St, San Francisco",37.782,-122.398,ASSAULT,BATTERY
968,City Nights,"715 Harrison St, San Francisco",37.782,-122.398,ASSAULT,BATTERY
969,City Nights,"715 Harrison St, San Francisco",37.782,-122.398,VEHICLE THEFT,STOLEN AUTOMOBILE
970,City Nights,"715 Harrison St, San Francisco",37.782,-122.398,ASSAULT,BATTERY
971,City Nights,"715 Harrison St, San Francisco",37.782,-122.398,NON-CRIMINAL,LOST PROPERTY
972,City Nights,"715 Harrison St, San Francisco",37.782,-122.398,ASSAULT,BATTERY
973,City Nights,"715 Harrison St, San Francisco",37.782,-122.398,LARCENY/THEFT,PETTY THEFT FROM LOCKED AUTO
974,City Nights,"715 Harrison St, San Francisco",37.782,-122.398,LARCENY/THEFT,GRAND THEFT PICKPOCKET
975,City Nights,"715 Harrison St, San Francisco",37.782,-122.398,OTHER OFFENSES,TRAFFIC VIOLATION ARREST
976,City Nights,"715 Harrison St, San Francisco",37.782,-122.398,OTHER OFFENSES,TRAFFIC VIOLATION
977,City Nights,"715 Harrison St, San Francisco",37.782,-122.398,NON-CRIMINAL,LOST PROPERTY
978,City Nights,"715 Harrison St, San Francisco",37.782,-122.398,LARCENY/THEFT,PETTY THEFT OF PROPERTY
979,City Nights,"715 Harrison St, San Francisco",37.782,-122.398,LARCENY/THEFT,PETTY THEFT OF PROPERTY
980,City Nights,"715 Harrison St, San Francisco",37.782,-122.398,LARCENY/THEFT,GRAND THEFT FROM LOCKED AUTO
981,City Nights,"715 Harrison St, San Francisco",37.782,-122.398,LARCENY/THEFT,GRAND THEFT FROM LOCKED AUTO
982,City Nights,"715 Harrison St, San Francisco",37.782,-122.398,LARCENY/THEFT,PETTY THEFT OF PROPERTY
983,City Nights,"715 Harrison St, San Francisco",37.782,-122.398,LARCENY/THEFT,PETTY THEFT OF PROPERTY
984,City Nights,"715 Harrison St, San Francisco",37.782,-122.398,LARCENY/THEFT,PETTY THEFT OF PROPERTY
985,City Nights,"715 Harrison St, San Francisco",37.782,-122.398,LARCENY/THEFT,PETTY THEFT OF PROPERTY
986,City Nights,"715 Harrison St, San Francisco",37.782,-122.398,LARCENY/THEFT,GRAND THEFT FROM LOCKED AUTO
987,City Nights,"715 Harrison St, San Francisco",37.782,-122.398,LARCENY/THEFT,PETTY THEFT OF PROPERTY
988,City Nights,"715 Harrison St, San Francisco",37.782,-122.398,LARCENY/THEFT,PETTY THEFT OF PROPERTY
989,City Nights,"715 Harrison St, San Francisco",37.782,-122.398,LARCENY/THEFT,GRAND THEFT FROM LOCKED AUTO
990,City Nights,"715 Harrison St, San Francisco",37.782,-122.398,LARCENY/THEFT,PETTY THEFT OF PROPERTY
991,City Nights,"715 Harrison St, San Francisco",37.782,-122.398,LARCENY/THEFT,PETTY THEFT OF PROPERTY
992,City Nights,"715 Harrison St, San Francisco",37.782,-122.398,LARCENY/THEFT,PETTY THEFT OF PROPERTY
993,City Nights,"715 Harrison St, San Francisco",37.782,-122.398,VEHICLE THEFT,STOLEN TRUCK
994,City Nights,"715 Harrison St, San Francisco",37.782,-122.398,LARCENY/THEFT,GRAND THEFT FROM LOCKED AUTO
995,City Nights,"715 Harrison St, San Francisco",37.782,-122.398,LARCENY/THEFT,GRAND THEFT FROM LOCKED AUTO
996,City Nights,"715 Harrison St, San Francisco",37.782,-122.398,LARCENY/THEFT,GRAND THEFT FROM LOCKED AUTO
997,City Nights,"715 Harrison St, San Francisco",37.782,-122.398,LARCENY/THEFT,GRAND THEFT FROM LOCKED AUTO
998,City Nights,"715 Harrison St, San Francisco",37.782,-122.398,ASSAULT,AGGRAVATED ASSAULT WITH A DEADLY WEAPON
999,City Nights,"715 Harrison St, San Francisco",37.782,-122.398,LARCENY/THEFT,PETTY THEFT OF PROPERTY
1000,City Nights,"715 Harrison St, San Francisco",37.782,-122.398,LARCENY/THEFT,GRAND THEFT FROM LOCKED AUTO
1001,City Nights,"715 Harrison St, San Francisco",37.782,-122.398,LARCENY/THEFT,GRAND THEFT FROM LOCKED AUTO
1002,City Nights,"715 Harrison St, San Francisco",37.782,-122.398,FRAUD,"CREDIT CARD, THEFT BY USE OF"
1003,City Nights,"715 Harrison St, San Francisco",37.782,-122.398,LARCENY/THEFT,GRAND THEFT FROM LOCKED AUTO
1004,City Nights,"715 Harrison St, San Francisco",37.782,-122.398,SUSPICIOUS OCC,INVESTIGATIVE DETENTION
1005,City Nights,"715 Harrison St, San Francisco",37.782,-122.398,NON-CRIMINAL,LOST PROPERTY
1006,City Nights,"715 Harrison St, San Francisco",37.782,-122.398,LARCENY/THEFT,GRAND THEFT FROM PERSON
1007,City Nights,"715 Harrison St, San Francisco",37.782,-122.398,VEHICLE THEFT,STOLEN AUTOMOBILE
1008,City Nights,"715 Harrison St, San Francisco",37.782,-122.398,LARCENY/THEFT,PETTY THEFT FROM LOCKED AUTO
1009,City Nights,"715 Harrison St, San Francisco",37.782,-122.398,LARCENY/THEFT,PETTY THEFT FROM LOCKED AUTO
1010,City Nights,"715 Harrison St, San Francisco",37.782,-122.398,LARCENY/THEFT,PETTY THEFT OF PROPERTY
1011,City Nights,"715 Harrison St, San Francisco",37.782,-122.398,VANDALISM,"MALICIOUS MISCHIEF, VANDALISM"
1012,City Nights,"715 Harrison St, San Francisco",37.782,-122.398,LARCENY/THEFT,GRAND THEFT OF PROPERTY
1013,City Nights,"715 Harrison St, San Francisco",37.782,-122.398,NON-CRIMINAL,LOST PROPERTY
1014,Rouge Night Club,"1500 Broadway, San Francisco",37.796,-122.422,WARRANTS,WARRANT ARREST
1015,Rouge Night Club,"1500 Broadway, San Francisco",37.796,-122.422,LARCENY/THEFT,PETTY THEFT BICYCLE
1016,Rouge Night Club,"1500 Broadway, San Francisco",37.796,-122.422,VANDALISM,"MALICIOUS MISCHIEF, VANDALISM"
1017,Rouge Night Club,"1500 Broadway, San Francisco",37.796,-122.422,LARCENY/THEFT,GRAND THEFT FROM LOCKED AUTO
1018,Rouge Night Club,"1500 Broadway, San Francisco",37.796,-122.422,LARCENY/THEFT,GRAND THEFT OF PROPERTY
1019,Rouge Night Club,"1500 Broadway, San Francisco",37.796,-122.422,NON-CRIMINAL,"AIDED CASE, MENTAL DISTURBED"
1020,Rouge Night Club,"1500 Broadway, San Francisco",37.796,-122.422,DRUNKENNESS,UNDER INFLUENCE OF ALCOHOL IN A PUBLIC PLACE
1021,Rouge Night Club,"1500 Broadway, San Francisco",37.796,-122.422,OTHER OFFENSES,RESISTING ARREST
1022,Rouge Night Club,"1500 Broadway, San Francisco",37.796,-122.422,ASSAULT,BATTERY
1023,Rouge Night Club,"1500 Broadway, San Francisco",37.796,-122.422,OTHER OFFENSES,MISCELLANEOUS INVESTIGATION
1024,Rouge Night Club,"1500 Broadway, San Francisco",37.796,-122.422,ASSAULT,BATTERY
1025,Rouge Night Club,"1500 Broadway, San Francisco",37.796,-122.422,ASSAULT,BATTERY
1026,Rouge Night Club,"1500 Broadway, San Francisco",37.796,-122.422,VANDALISM,"MALICIOUS MISCHIEF, VANDALISM OF VEHICLES"
1027,Rouge Night Club,"1500 Broadway, San Francisco",37.796,-122.422,VANDALISM,"MALICIOUS MISCHIEF, VANDALISM"
1028,Rouge Night Club,"1500 Broadway, San Francisco",37.796,-122.422,OTHER OFFENSES,TRAFFIC VIOLATION ARREST
1029,Rouge Night Club,"1500 Broadway, San Francisco",37.796,-122.422,VANDALISM,"MALICIOUS MISCHIEF, VANDALISM OF VEHICLES"
1030,Rouge Night Club,"1500 Broadway, San Francisco",37.796,-122.422,LARCENY/THEFT,GRAND THEFT FROM PERSON
1031,Rouge Night Club,"1500 Broadway, San Francisco",37.796,-122.422,LARCENY/THEFT,PETTY THEFT SHOPLIFTING
1032,Rouge Night Club,"1500 Broadway, San Francisco",37.796,-122.422,FRAUD,"CREDIT CARD, THEFT BY USE OF"
1033,Rouge Night Club,"1500 Broadway, San Francisco",37.796,-122.422,NON-CRIMINAL,LOST PROPERTY
1034,Rouge Night Club,"1500 Broadway, San Francisco",37.796,-122.422,ASSAULT,BATTERY
1035,Rouge Night Club,"1500 Broadway, San Francisco",37.796,-122.422,LARCENY/THEFT,GRAND THEFT FROM LOCKED AUTO
1036,Rouge Night Club,"1500 Broadway, San Francisco",37.796,-122.422,NON-CRIMINAL,"AIDED CASE, DOG BITE"
1037,Rouge Night Club,"1500 Broadway, San Francisco",37.796,-122.422,ROBBERY,"ROBBERY, BODILY FORCE"
1038,Rouge Night Club,"1500 Broadway, San Francisco",37.796,-122.422,LARCENY/THEFT,GRAND THEFT FROM A BUILDING
1039,Rouge Night Club,"1500 Broadway, San Francisco",37.796,-122.422,FRAUD,"CREDIT CARD, THEFT BY USE OF"
1040,Rouge Night Club,"1500 Broadway, San Francisco",37.796,-122.422,LARCENY/THEFT,PETTY THEFT FROM A BUILDING
1041,Rouge Night Club,"1500 Broadway, San Francisco",37.796,-122.422,BURGLARY,"BURGLARY, UNLAWFUL ENTRY"
1042,Rouge Night Club,"1500 Broadway, San Francisco",37.796,-122.422,ASSAULT,BATTERY
1043,Rouge Night Club,"1500 Broadway, San Francisco",37.796,-122.422,DISORDERLY CONDUCT,"DISTURBING THE PEACE, FIGHTING"
1044,Rouge Night Club,"1500 Broadway, San Francisco",37.796,-122.422,DRUNKENNESS,UNDER INFLUENCE OF ALCOHOL IN A PUBLIC PLACE
1045,Rouge Night Club,"1500 Broadway, San Francisco",37.796,-122.422,SUSPICIOUS OCC,INVESTIGATIVE DETENTION
1046,Rouge Night Club,"1500 Broadway, San Francisco",37.796,-122.422,ASSAULT,BATTERY
1047,Rouge Night Club,"1500 Broadway, San Francisco",37.796,-122.422,OTHER OFFENSES,VIOLATION OF RESTRAINING ORDER
1048,Rouge Night Club,"1500 Broadway, San Francisco",37.796,-122.422,SECONDARY CODES,DOMESTIC VIOLENCE
1049,Rouge Night Club,"1500 Broadway, San Francisco",37.796,-122.422,ASSAULT,FALSE IMPRISONMENT
1050,Rouge Night Club,"1500 Broadway, San Francisco",37.796,-122.422,ASSAULT,INFLICT INJURY ON COHABITEE
1051,Rouge Night Club,"1500 Broadway, San Francisco",37.796,-122.422,OTHER OFFENSES,"STAY AWAY ORDER VIOLATION, DV RELATED"
1052,Rouge Night Club,"1500 Broadway, San Francisco",37.796,-122.422,FRAUD,"CREDIT CARD, THEFT BY USE OF"
1053,Rouge Night Club,"1500 Broadway, San Francisco",37.796,-122.422,NON-CRIMINAL,SEARCH WARRANT SERVICE
1054,Rouge Night Club,"1500 Broadway, San Francisco",37.796,-122.422,NON-CRIMINAL,"AIDED CASE, MENTAL DISTURBED"
1055,Rouge Night Club,"1500 Broadway, San Francisco",37.796,-122.422,ASSAULT,"BATTERY, FORMER SPOUSE OR DATING RELATIONSHIP"
1056,Rouge Night Club,"1500 Broadway, San Francisco",37.796,-122.422,LARCENY/THEFT,GRAND THEFT FROM PERSON
1057,Rouge Night Club,"1500 Broadway, San Francisco",37.796,-122.422,LARCENY/THEFT,PETTY THEFT FROM A BUILDING
1058,Rouge Night Club,"1500 Broadway, San Francisco",37.796,-122.422,WEAPON LAWS,EXHIBITING DEADLY WEAPON IN A THREATING MANNER
1059,Rouge Night Club,"1500 Broadway, San Francisco",37.796,-122.422,OTHER OFFENSES,VIOLATION OF STAY AWAY ORDER
1060,Rouge Night Club,"1500 Broadway, San Francisco",37.796,-122.422,ASSAULT,THREATS AGAINST LIFE
1061,Rouge Night Club,"1500 Broadway, San Francisco",37.796,-122.422,FRAUD,"CREDIT CARD, THEFT BY USE OF"
1062,Rouge Night Club,"1500 Broadway, San Francisco",37.796,-122.422,LARCENY/THEFT,"LOST PROPERTY, PETTY THEFT"
1063,Rouge Night Club,"1500 Broadway, San Francisco",37.796,-122.422,ASSAULT,"BATTERY, FORMER SPOUSE OR DATING RELATIONSHIP"
1064,Rouge Night Club,"1500 Broadway, San Francisco",37.796,-122.422,ASSAULT,FALSE IMPRISONMENT
1065,Rouge Night Club,"1500 Broadway, San Francisco",37.796,-122.422,BURGLARY,"BURGLARY OF APARTMENT HOUSE, FORCIBLE ENTRY"
1066,Rouge Night Club,"1500 Broadway, San Francisco",37.796,-122.422,OTHER OFFENSES,"STAY AWAY ORDER VIOLATION, DV RELATED"
1067,Rouge Night Club,"1500 Broadway, San Francisco",37.796,-122.422,OTHER OFFENSES,PROBATION VIOLATION
1068,Rouge Night Club,"1500 Broadway, San Francisco",37.796,-122.422,ROBBERY,"ROBBERY, BODILY FORCE"
1069,Rouge Night Club,"1500 Broadway, San Francisco",37.796,-122.422,ASSAULT,BATTERY
1070,Rouge Night Club,"1500 Broadway, San Francisco",37.796,-122.422,VANDALISM,"MALICIOUS MISCHIEF, VANDALISM"
1071,Rouge Night Club,"1500 Broadway, San Francisco",37.796,-122.422,DRUG/NARCOTIC,POSSESSION OF METH-AMPHETAMINE
1072,Rouge Night Club,"1500 Broadway, San Francisco",37.796,-122.422,OTHER OFFENSES,PROBATION VIOLATION
1073,Rouge Night Club,"1500 Broadway, San Francisco",37.796,-122.422,WARRANTS,WARRANT ARREST
1074,Rouge Night Club,"1500 Broadway, San Francisco",37.796,-122.422,NON-CRIMINAL,FOUND PROPERTY
1075,Rouge Night Club,"1500 Broadway, San Francisco",37.796,-122.422,ASSAULT,BATTERY OF A POLICE OFFICER
1076,Rouge Night Club,"1500 Broadway, San Francisco",37.796,-122.422,DRUNKENNESS,UNDER INFLUENCE OF ALCOHOL IN A PUBLIC PLACE
1077,Rouge Night Club,"1500 Broadway, San Francisco",37.796,-122.422,OTHER OFFENSES,PROBATION VIOLATION
1078,Rouge Night Club,"1500 Broadway, San Francisco",37.796,-122.422,OTHER OFFENSES,RESISTING ARREST
1079,Rouge Night Club,"1500 Broadway, San Francisco",37.796,-122.422,LARCENY/THEFT,GRAND THEFT FROM LOCKED AUTO
1080,Rouge Night Club,"1500 Broadway, San Francisco",37.796,-122.422,NON-CRIMINAL,LOST PROPERTY
1081,Rouge Night Club,"1500 Broadway, San Francisco",37.796,-122.422,LARCENY/THEFT,GRAND THEFT FROM LOCKED AUTO
1082,Rouge Night Club,"1500 Broadway, San Francisco",37.796,-122.422,LARCENY/THEFT,GRAND THEFT FROM LOCKED AUTO
1083,Rouge Night Club,"1500 Broadway, San Francisco",37.796,-122.422,NON-CRIMINAL,LOST PROPERTY
1084,Rouge Night Club,"1500 Broadway, San Francisco",37.796,-122.422,LARCENY/THEFT,PETTY THEFT OF PROPERTY
1085,Rouge Night Club,"1500 Broadway, San Francisco",37.796,-122.422,LARCENY/THEFT,GRAND THEFT FROM LOCKED AUTO
1086,Rouge Night Club,"1500 Broadway, San Francisco",37.796,-122.422,LARCENY/THEFT,GRAND THEFT FROM LOCKED AUTO
1087,Rouge Night Club,"1500 Broadway, San Francisco",37.796,-122.422,LARCENY/THEFT,PETTY THEFT OF PROPERTY
1088,Rouge Night Club,"1500 Broadway, San Francisco",37.796,-122.422,LARCENY/THEFT,GRAND THEFT FROM LOCKED AUTO
1089,Rouge Night Club,"1500 Broadway, San Francisco",37.796,-122.422,LARCENY/THEFT,GRAND THEFT FROM LOCKED AUTO
1090,Rouge Night Club,"1500 Broadway, San Francisco",37.796,-122.422,NON-CRIMINAL,FOUND PROPERTY
1091,Rouge Night Club,"1500 Broadway, San Francisco",37.796,-122.422,LARCENY/THEFT,GRAND THEFT FROM LOCKED AUTO
1092,Rouge Night Club,"1500 Broadway, San Francisco",37.796,-122.422,LARCENY/THEFT,GRAND THEFT FROM LOCKED AUTO
1093,Rouge Night Club,"1500 Broadway, San Francisco",37.796,-122.422,LARCENY/THEFT,GRAND THEFT OF PROPERTY
1094,Rouge Night Club,"1500 Broadway, San Francisco",37.796,-122.422,NON-CRIMINAL,LOST PROPERTY
1095,Rouge Night Club,"1500 Broadway, San Francisco",37.796,-122.422,LARCENY/THEFT,PETTY THEFT OF PROPERTY
1096,Rouge Night Club,"1500 Broadway, San Francisco",37.796,-122.422,NON-CRIMINAL,LOST PROPERTY
1097,ShBoom Nightclub,"2410 San Ramon Valley Blvd #130, San Ramon",37.775,-121.976,,
1098,Love + Propaganda,"85 Campton Pl, San Francisco",37.789,-122.407,NON-CRIMINAL,"AIDED CASE, MENTAL DISTURBED"
1099,Love + Propaganda,"85 Campton Pl, San Francisco",37.789,-122.407,LARCENY/THEFT,GRAND THEFT FROM PERSON
1100,Love + Propaganda,"85 Campton Pl, San Francisco",37.789,-122.407,"SEX OFFENSES, FORCIBLE",SEXUAL BATTERY
1101,Love + Propaganda,"85 Campton Pl, San Francisco",37.789,-122.407,FRAUD,"CREDIT CARD, THEFT BY USE OF"
1102,Love + Propaganda,"85 Campton Pl, San Francisco",37.789,-122.407,NON-CRIMINAL,LOST PROPERTY
1103,Love + Propaganda,"85 Campton Pl, San Francisco",37.789,-122.407,LARCENY/THEFT,GRAND THEFT PICKPOCKET
1104,Love + Propaganda,"85 Campton Pl, San Francisco",37.789,-122.407,LARCENY/THEFT,GRAND THEFT PICKPOCKET
1105,Love + Propaganda,"85 Campton Pl, San Francisco",37.789,-122.407,FRAUD,"CREDIT CARD, THEFT BY USE OF"
1106,Love + Propaganda,"85 Campton Pl, San Francisco",37.789,-122.407,LARCENY/THEFT,GRAND THEFT FROM PERSON
1107,Love + Propaganda,"85 Campton Pl, San Francisco",37.789,-122.407,NON-CRIMINAL,LOST PROPERTY
1108,Love + Propaganda,"85 Campton Pl, San Francisco",37.789,-122.407,LARCENY/THEFT,GRAND THEFT PICKPOCKET
1109,Love + Propaganda,"85 Campton Pl, San Francisco",37.789,-122.407,"SEX OFFENSES, FORCIBLE",SEXUAL BATTERY
1110,Love + Propaganda,"85 Campton Pl, San Francisco",37.789,-122.407,LARCENY/THEFT,PETTY THEFT SHOPLIFTING
1111,Love + Propaganda,"85 Campton Pl, San Francisco",37.789,-122.407,ASSAULT,BATTERY
1112,Love + Propaganda,"85 Campton Pl, San Francisco",37.789,-122.407,VEHICLE THEFT,STOLEN AUTOMOBILE
1113,Love + Propaganda,"85 Campton Pl, San Francisco",37.789,-122.407,NON-CRIMINAL,"AIDED CASE, MENTAL DISTURBED"
1114,Love + Propaganda,"85 Campton Pl, San Francisco",37.789,-122.407,LARCENY/THEFT,PETTY THEFT FROM A BUILDING
1115,Love + Propaganda,"85 Campton Pl, San Francisco",37.789,-122.407,LARCENY/THEFT,GRAND THEFT FROM PERSON
1116,Love + Propaganda,"85 Campton Pl, San Francisco",37.789,-122.407,NON-CRIMINAL,AIDED CASE
1117,Love + Propaganda,"85 Campton Pl, San Francisco",37.789,-122.407,OTHER OFFENSES,TRAFFIC VIOLATION
1118,Love + Propaganda,"85 Campton Pl, San Francisco",37.789,-122.407,DRUNKENNESS,UNDER INFLUENCE OF ALCOHOL IN A PUBLIC PLACE
1119,Love + Propaganda,"85 Campton Pl, San Francisco",37.789,-122.407,ROBBERY,"ROBBERY, BODILY FORCE"
1120,Love + Propaganda,"85 Campton Pl, San Francisco",37.789,-122.407,LARCENY/THEFT,GRAND THEFT PICKPOCKET
1121,Love + Propaganda,"85 Campton Pl, San Francisco",37.789,-122.407,LARCENY/THEFT,GRAND THEFT PICKPOCKET
1122,Love + Propaganda,"85 Campton Pl, San Francisco",37.789,-122.407,NON-CRIMINAL,FOUND PROPERTY
1123,Love + Propaganda,"85 Campton Pl, San Francisco",37.789,-122.407,LARCENY/THEFT,GRAND THEFT PICKPOCKET
1124,Love + Propaganda,"85 Campton Pl, San Francisco",37.789,-122.407,NON-CRIMINAL,FOUND PROPERTY
1125,Love + Propaganda,"85 Campton Pl, San Francisco",37.789,-122.407,SUSPICIOUS OCC,SUSPICIOUS OCCURRENCE
1126,Love + Propaganda,"85 Campton Pl, San Francisco",37.789,-122.407,TRESPASS,TRESPASSING
1127,Love + Propaganda,"85 Campton Pl, San Francisco",37.789,-122.407,OTHER OFFENSES,VIOLATION OF MUNICIPAL POLICE CODE
1128,Love + Propaganda,"85 Campton Pl, San Francisco",37.789,-122.407,WARRANTS,ENROUTE TO OUTSIDE JURISDICTION
1129,Love + Propaganda,"85 Campton Pl, San Francisco",37.789,-122.407,LARCENY/THEFT,PETTY THEFT SHOPLIFTING
1130,Love + Propaganda,"85 Campton Pl, San Francisco",37.789,-122.407,BURGLARY,"BURGLARY OF HOTEL ROOM, UNLAWFUL ENTRY"
1131,Love + Propaganda,"85 Campton Pl, San Francisco",37.789,-122.407,BURGLARY,"BURGLARY, UNLAWFUL ENTRY"
1132,Love + Propaganda,"85 Campton Pl, San Francisco",37.789,-122.407,LARCENY/THEFT,GRAND THEFT PICKPOCKET
1133,Love + Propaganda,"85 Campton Pl, San Francisco",37.789,-122.407,ASSAULT,BATTERY
1134,Love + Propaganda,"85 Campton Pl, San Francisco",37.789,-122.407,LARCENY/THEFT,PETTY THEFT FROM UNLOCKED AUTO
1135,Love + Propaganda,"85 Campton Pl, San Francisco",37.789,-122.407,SUSPICIOUS OCC,INVESTIGATIVE DETENTION
1136,Love + Propaganda,"85 Campton Pl, San Francisco",37.789,-122.407,FRAUD,"CREDIT CARD, THEFT BY USE OF"
1137,Love + Propaganda,"85 Campton Pl, San Francisco",37.789,-122.407,NON-CRIMINAL,LOST PROPERTY
1138,Love + Propaganda,"85 Campton Pl, San Francisco",37.789,-122.407,NON-CRIMINAL,"AIDED CASE, MENTAL DISTURBED"
1139,Love + Propaganda,"85 Campton Pl, San Francisco",37.789,-122.407,ROBBERY,"ROBBERY, BODILY FORCE"
1140,Love + Propaganda,"85 Campton Pl, San Francisco",37.789,-122.407,LARCENY/THEFT,PETTY THEFT OF PROPERTY
1141,Love + Propaganda,"85 Campton Pl, San Francisco",37.789,-122.407,OTHER OFFENSES,LOST/STOLEN LICENSE PLATE
1142,Love + Propaganda,"85 Campton Pl, San Francisco",37.789,-122.407,NON-CRIMINAL,"LICENSE PLATE, RECOVERED"
1143,Love + Propaganda,"85 Campton Pl, San Francisco",37.789,-122.407,NON-CRIMINAL,"LICENSE PLATE, FOUND"
1144,Love + Propaganda,"85 Campton Pl, San Francisco",37.789,-122.407,OTHER OFFENSES,FALSE PERSONATION TO RECEIVE MONEY OR PROPERTY
1145,Love + Propaganda,"85 Campton Pl, San Francisco",37.789,-122.407,FRAUD,"CREDIT CARD, THEFT BY USE OF"
1146,Love + Propaganda,"85 Campton Pl, San Francisco",37.789,-122.407,LARCENY/THEFT,GRAND THEFT PICKPOCKET
1147,Love + Propaganda,"85 Campton Pl, San Francisco",37.789,-122.407,LARCENY/THEFT,PETTY THEFT FROM LOCKED AUTO
1148,Love + Propaganda,"85 Campton Pl, San Francisco",37.789,-122.407,SECONDARY CODES,JUVENILE INVOLVED
1149,Love + Propaganda,"85 Campton Pl, San Francisco",37.789,-122.407,WARRANTS,ENROUTE TO OUTSIDE JURISDICTION
1150,Love + Propaganda,"85 Campton Pl, San Francisco",37.789,-122.407,MISSING PERSON,FOUND PERSON
1151,Love + Propaganda,"85 Campton Pl, San Francisco",37.789,-122.407,BURGLARY,"BURGLARY OF HOTEL ROOM, UNLAWFUL ENTRY"
1152,Love + Propaganda,"85 Campton Pl, San Francisco",37.789,-122.407,LARCENY/THEFT,PETTY THEFT FROM LOCKED AUTO
1153,Love + Propaganda,"85 Campton Pl, San Francisco",37.789,-122.407,VANDALISM,"MALICIOUS MISCHIEF, VANDALISM OF VEHICLES"
1154,Love + Propaganda,"85 Campton Pl, San Francisco",37.789,-122.407,LARCENY/THEFT,GRAND THEFT FROM PERSON
1155,Love + Propaganda,"85 Campton Pl, San Francisco",37.789,-122.407,FRAUD,"CREDIT CARD, THEFT BY USE OF"
1156,Love + Propaganda,"85 Campton Pl, San Francisco",37.789,-122.407,LARCENY/THEFT,GRAND THEFT PICKPOCKET
1157,Love + Propaganda,"85 Campton Pl, San Francisco",37.789,-122.407,LARCENY/THEFT,GRAND THEFT PICKPOCKET
1158,Love + Propaganda,"85 Campton Pl, San Francisco",37.789,-122.407,LARCENY/THEFT,GRAND THEFT FROM LOCKED AUTO
1159,Love + Propaganda,"85 Campton Pl, San Francisco",37.789,-122.407,"SEX OFFENSES, FORCIBLE",SEXUAL BATTERY
1160,Love + Propaganda,"85 Campton Pl, San Francisco",37.789,-122.407,ASSAULT,FALSE IMPRISONMENT
1161,Love + Propaganda,"85 Campton Pl, San Francisco",37.789,-122.407,"SEX OFFENSES, FORCIBLE",SODOMY (ADULT VICTIM)
1162,Love + Propaganda,"85 Campton Pl, San Francisco",37.789,-122.407,WARRANTS,ENROUTE TO OUTSIDE JURISDICTION
1163,Love + Propaganda,"85 Campton Pl, San Francisco",37.789,-122.407,LARCENY/THEFT,GRAND THEFT FROM PERSON
1164,Love + Propaganda,"85 Campton Pl, San Francisco",37.789,-122.407,FRAUD,FRAUDULENT USE OF AUTOMATED TELLER CARD
1165,Love + Propaganda,"85 Campton Pl, San Francisco",37.789,-122.407,NON-CRIMINAL,FOUND PROPERTY
1166,Love + Propaganda,"85 Campton Pl, San Francisco",37.789,-122.407,LARCENY/THEFT,GRAND THEFT FROM PERSON
1167,Love + Propaganda,"85 Campton Pl, San Francisco",37.789,-122.407,FRAUD,"CREDIT CARD, THEFT BY USE OF"
1168,Love + Propaganda,"85 Campton Pl, San Francisco",37.789,-122.407,LARCENY/THEFT,PETTY THEFT SHOPLIFTING
1169,Love + Propaganda,"85 Campton Pl, San Francisco",37.789,-122.407,NON-CRIMINAL,LOST PROPERTY
1170,Love + Propaganda,"85 Campton Pl, San Francisco",37.789,-122.407,DRUG/NARCOTIC,POSSESSION OF NARCOTICS PARAPHERNALIA
1171,Love + Propaganda,"85 Campton Pl, San Francisco",37.789,-122.407,BURGLARY,"BURGLARY OF HOTEL ROOM, UNLAWFUL ENTRY"
1172,Love + Propaganda,"85 Campton Pl, San Francisco",37.789,-122.407,SUSPICIOUS OCC,SUSPICIOUS OCCURRENCE
1173,Love + Propaganda,"85 Campton Pl, San Francisco",37.789,-122.407,LARCENY/THEFT,"LOST PROPERTY, PETTY THEFT"
1174,Love + Propaganda,"85 Campton Pl, San Francisco",37.789,-122.407,LARCENY/THEFT,GRAND THEFT SHOPLIFTING
1175,Love + Propaganda,"85 Campton Pl, San Francisco",37.789,-122.407,WEAPON LAWS,EXHIBITING DEADLY WEAPON IN A THREATING MANNER
1176,Love + Propaganda,"85 Campton Pl, San Francisco",37.789,-122.407,LARCENY/THEFT,PETTY THEFT FROM A BUILDING
1177,Love + Propaganda,"85 Campton Pl, San Francisco",37.789,-122.407,BURGLARY,"BURGLARY OF HOTEL ROOM, UNLAWFUL ENTRY"
1178,Love + Propaganda,"85 Campton Pl, San Francisco",37.789,-122.407,ASSAULT,FALSE IMPRISONMENT
1179,Love + Propaganda,"85 Campton Pl, San Francisco",37.789,-122.407,LARCENY/THEFT,GRAND THEFT PICKPOCKET
1180,Love + Propaganda,"85 Campton Pl, San Francisco",37.789,-122.407,OTHER OFFENSES,VIOLATION OF STAY AWAY ORDER
1181,Love + Propaganda,"85 Campton Pl, San Francisco",37.789,-122.407,WARRANTS,WARRANT ARREST
1182,Love + Propaganda,"85 Campton Pl, San Francisco",37.789,-122.407,LARCENY/THEFT,GRAND THEFT PICKPOCKET
1183,Love + Propaganda,"85 Campton Pl, San Francisco",37.789,-122.407,FRAUD,"CREDIT CARD, THEFT BY USE OF"
1184,Love + Propaganda,"85 Campton Pl, San Francisco",37.789,-122.407,LARCENY/THEFT,GRAND THEFT FROM LOCKED AUTO
1185,Love + Propaganda,"85 Campton Pl, San Francisco",37.789,-122.407,VEHICLE THEFT,STOLEN AND RECOVERED VEHICLE
1186,Love + Propaganda,"85 Campton Pl, San Francisco",37.789,-122.407,VEHICLE THEFT,STOLEN AUTOMOBILE
1187,Love + Propaganda,"85 Campton Pl, San Francisco",37.789,-122.407,LARCENY/THEFT,GRAND THEFT BICYCLE
1188,Love + Propaganda,"85 Campton Pl, San Francisco",37.789,-122.407,LARCENY/THEFT,GRAND THEFT PICKPOCKET
1189,Love + Propaganda,"85 Campton Pl, San Francisco",37.789,-122.407,OTHER OFFENSES,TRAFFIC VIOLATION
1190,Love + Propaganda,"85 Campton Pl, San Francisco",37.789,-122.407,OTHER OFFENSES,VIOLATION OF MUNICIPAL CODE
1191,Love + Propaganda,"85 Campton Pl, San Francisco",37.789,-122.407,WARRANTS,ENROUTE TO OUTSIDE JURISDICTION
1192,Love + Propaganda,"85 Campton Pl, San Francisco",37.789,-122.407,ASSAULT,BATTERY
1193,Love + Propaganda,"85 Campton Pl, San Francisco",37.789,-122.407,LARCENY/THEFT,PETTY THEFT OF PROPERTY
1194,Love + Propaganda,"85 Campton Pl, San Francisco",37.789,-122.407,LARCENY/THEFT,GRAND THEFT OF PROPERTY
1195,Love + Propaganda,"85 Campton Pl, San Francisco",37.789,-122.407,LARCENY/THEFT,PETTY THEFT OF PROPERTY
1196,Love + Propaganda,"85 Campton Pl, San Francisco",37.789,-122.407,LARCENY/THEFT,GRAND THEFT FROM LOCKED AUTO
1197,Love + Propaganda,"85 Campton Pl, San Francisco",37.789,-122.407,VANDALISM,"MALICIOUS MISCHIEF, VANDALISM"
1198,Love + Propaganda,"85 Campton Pl, San Francisco",37.789,-122.407,LARCENY/THEFT,GRAND THEFT FROM LOCKED AUTO
1199,Love + Propaganda,"85 Campton Pl, San Francisco",37.789,-122.407,LARCENY/THEFT,GRAND THEFT FROM LOCKED AUTO
1200,Love + Propaganda,"85 Campton Pl, San Francisco",37.789,-122.407,LARCENY/THEFT,GRAND THEFT OF PROPERTY
1201,Love + Propaganda,"85 Campton Pl, San Francisco",37.789,-122.407,LARCENY/THEFT,PETTY THEFT OF PROPERTY
1202,Love + Propaganda,"85 Campton Pl, San Francisco",37.789,-122.407,NON-CRIMINAL,LOST PROPERTY
1203,Love + Propaganda,"85 Campton Pl, San Francisco",37.789,-122.407,LARCENY/THEFT,PETTY THEFT BICYCLE
1204,Love + Propaganda,"85 Campton Pl, San Francisco",37.789,-122.407,LARCENY/THEFT,GRAND THEFT FROM LOCKED AUTO
1205,Love + Propaganda,"85 Campton Pl, San Francisco",37.789,-122.407,LARCENY/THEFT,GRAND THEFT FROM LOCKED AUTO
1206,Love + Propaganda,"85 Campton Pl, San Francisco",37.789,-122.407,LARCENY/THEFT,GRAND THEFT OF PROPERTY
1207,Love + Propaganda,"85 Campton Pl, San Francisco",37.789,-122.407,LARCENY/THEFT,GRAND THEFT FROM LOCKED AUTO
1208,Love + Propaganda,"85 Campton Pl, San Francisco",37.789,-122.407,LARCENY/THEFT,GRAND THEFT FROM LOCKED AUTO
1209,Love + Propaganda,"85 Campton Pl, San Francisco",37.789,-122.407,LARCENY/THEFT,GRAND THEFT FROM LOCKED AUTO
1210,Love + Propaganda,"85 Campton Pl, San Francisco",37.789,-122.407,LARCENY/THEFT,GRAND THEFT FROM LOCKED AUTO
1211,Love + Propaganda,"85 Campton Pl, San Francisco",37.789,-122.407,LARCENY/THEFT,PETTY THEFT OF PROPERTY
1212,Love + Propaganda,"85 Campton Pl, San Francisco",37.789,-122.407,LARCENY/THEFT,GRAND THEFT OF PROPERTY
1213,Love + Propaganda,"85 Campton Pl, San Francisco",37.789,-122.407,LARCENY/THEFT,GRAND THEFT FROM LOCKED AUTO
1214,Love + Propaganda,"85 Campton Pl, San Francisco",37.789,-122.407,LARCENY/THEFT,PETTY THEFT OF PROPERTY
1215,Love + Propaganda,"85 Campton Pl, San Francisco",37.789,-122.407,LARCENY/THEFT,PETTY THEFT OF PROPERTY
1216,Love + Propaganda,"85 Campton Pl, San Francisco",37.789,-122.407,LARCENY/THEFT,PETTY THEFT OF PROPERTY
1217,Love + Propaganda,"85 Campton Pl, San Francisco",37.789,-122.407,LARCENY/THEFT,GRAND THEFT OF PROPERTY
1218,Love + Propaganda,"85 Campton Pl, San Francisco",37.789,-122.407,LARCENY/THEFT,GRAND THEFT FROM PERSON
1219,Love + Propaganda,"85 Campton Pl, San Francisco",37.789,-122.407,LARCENY/THEFT,PETTY THEFT OF PROPERTY
1220,Love + Propaganda,"85 Campton Pl, San Francisco",37.789,-122.407,LARCENY/THEFT,PETTY THEFT OF PROPERTY
1221,Love + Propaganda,"85 Campton Pl, San Francisco",37.789,-122.407,LARCENY/THEFT,GRAND THEFT FROM LOCKED AUTO
1222,Love + Propaganda,"85 Campton Pl, San Francisco",37.789,-122.407,LARCENY/THEFT,GRAND THEFT FROM LOCKED AUTO
1223,Love + Propaganda,"85 Campton Pl, San Francisco",37.789,-122.407,LARCENY/THEFT,GRAND THEFT BICYCLE
1224,Love + Propaganda,"85 Campton Pl, San Francisco",37.789,-122.407,LARCENY/THEFT,GRAND THEFT FROM A BUILDING
1225,Love + Propaganda,"85 Campton Pl, San Francisco",37.789,-122.407,FRAUD,FRAUDULENT USE OF AUTOMATED TELLER CARD
1226,Love + Propaganda,"85 Campton Pl, San Francisco",37.789,-122.407,LARCENY/THEFT,PETTY THEFT FROM LOCKED AUTO
1227,Love + Propaganda,"85 Campton Pl, San Francisco",37.789,-122.407,WARRANTS,WARRANT ARREST
1228,Love + Propaganda,"85 Campton Pl, San Francisco",37.789,-122.407,SUSPICIOUS OCC,SUSPICIOUS OCCURRENCE
1229,Love + Propaganda,"85 Campton Pl, San Francisco",37.789,-122.407,LARCENY/THEFT,GRAND THEFT PICKPOCKET
1230,Love + Propaganda,"85 Campton Pl, San Francisco",37.789,-122.407,LARCENY/THEFT,GRAND THEFT PICKPOCKET
1231,Love + Propaganda,"85 Campton Pl, San Francisco",37.789,-122.407,OTHER OFFENSES,VIOLATION OF RESTRAINING ORDER
1232,Love + Propaganda,"85 Campton Pl, San Francisco",37.789,-122.407,FRAUD,FALSE ID TO PEACE OFFICER
1233,Love + Propaganda,"85 Campton Pl, San Francisco",37.789,-122.407,OTHER OFFENSES,RESISTING ARREST
1234,Love + Propaganda,"85 Campton Pl, San Francisco",37.789,-122.407,NON-CRIMINAL,"AIDED CASE, MENTAL DISTURBED"
1235,Love + Propaganda,"85 Campton Pl, San Francisco",37.789,-122.407,LARCENY/THEFT,GRAND THEFT FROM LOCKED AUTO
1236,Miami Beach Club,"417 S 1st St, San Jose",37.33,-121.886,,
1237,ENSO Bar & Nightclub,"97 E Santa Clara St, San Jose",37.337,-121.889,,
